start_ip,end_ip,join_key,city,region,country,latitude,longitude,postal_code,timezone
106.205.159.56,106.205.159.127,106.205.0.0,Shimla,Himachal Pradesh,IN,31.10442,77.16662,171003,Asia/Kolkata
103.252.147.128,103.252.147.255,103.252.0.0,Hyderābād,Telangana,IN,17.3613,78.4896,500023,Asia/Kolkata
101.183.47.136,101.183.47.159,101.183.0.0,Brisbane,Queensland,AU,-27.45617,153.05917,4171,Australia/Brisbane
101.175.150.224,101.175.150.231,101.175.0.0,West Lamington,Western Australia,AU,-30.74707,121.45248,6430,Australia/Perth
109.143.134.130,109.143.134.131,109.143.0.0,Angleur,Wallonia,BE,50.6113,5.59942,4031,Europe/Brussels
109.119.217.150,109.119.217.255,109.119.0.0,Treviso,Veneto,IT,45.66673,12.2416,31100,Europe/Rome
108.178.85.120,108.178.85.127,108.178.0.0,Cibolo,Texas,US,29.56162,-98.22696,78108,America/Chicago
104.186.125.100,104.186.125.103,104.186.0.0,Atlanta,Georgia,US,33.749,-84.38798,30302,America/New_York
104.143.63.0,104.143.63.255,104.143.0.0,Baxter Springs,Kansas,US,37.02368,-94.7355,66713,America/Chicago
106.242.191.0,106.242.191.127,106.242.0.0,Kinzan,Chungcheongnam-do,KR,36.1006,127.4973,32739,Asia/Seoul
105.82.118.230,105.82.118.233,105.82.0.0,Cairo,Cairo,EG,30.06263,31.24967,,Africa/Cairo
101.51.68.92,101.51.68.102,101.51.0.0,Nakhon Pathom,Nakhon Pathom,TH,13.8196,100.04427,73000,Asia/Bangkok
106.146.95.164,106.146.95.164,106.146.0.0,Osaka,Ōsaka,JP,34.69374,135.50218,543-0062,Asia/Tokyo
1.4.180.84,1.4.180.89,1.4.0.0,Si Chiang Mai,Nong Khai,TH,17.95639,102.58667,43130,Asia/Bangkok
102.106.83.153,102.106.83.153,102.106.0.0,Tunis,Tūnis,TN,36.81897,10.16579,,Africa/Tunis
104.44.230.134,104.44.230.137,104.44.0.0,Redmond,Washington,US,47.67399,-122.12151,98052,America/Los_Angeles
103.15.140.72,103.15.140.255,103.15.0.0,Dhaka,Dhaka,BD,23.7104,90.40744,1000,Asia/Dhaka
1.145.16.152,1.145.16.159,1.145.0.0,Orange,New South Wales,AU,-33.28397,149.10018,2800,Australia/Sydney
107.130.156.184,107.130.156.187,107.130.0.0,Mart,Texas,US,31.54239,-96.8336,76664,America/Chicago
105.186.176.0,105.186.176.183,105.186.0.0,Cape Town,Western Cape,ZA,-33.9164,18.4153,8000,Africa/Johannesburg
102.109.8.54,102.109.8.54,102.109.0.0,Sfax,Şafāqis,TN,34.74056,10.76028,,Africa/Tunis
101.179.143.117,101.179.143.117,101.179.0.0,Perth,Western Australia,AU,-31.93605,115.83805,6007,Australia/Perth
102.171.93.191,102.171.93.191,102.171.0.0,Sousse,Sūsah,TN,35.82539,10.63699,,Africa/Tunis
1.1.113.89,1.1.113.89,1.1.0.0,Kurashiki,Okayama,JP,34.58333,133.76667,710-0824,Asia/Tokyo
106.212.249.8,106.212.249.15,106.212.0.0,Gajuwaka,Andhra Pradesh,IN,17.7167,83.2833,530004,Asia/Kolkata
101.181.53.0,101.181.53.23,101.181.0.0,Melbourne,Victoria,AU,-37.836,144.9835,3141,Australia/Melbourne
106.129.3.16,106.129.3.18,106.129.0.0,Sapporo,Hokkaido,JP,43.06667,141.35,065-0010,Asia/Tokyo
105.44.180.142,105.44.180.157,105.44.0.0,Suez,Suez,EG,29.97371,32.52627,,Africa/Cairo
105.225.147.117,105.225.147.117,105.225.0.0,Thohoyandou,Limpopo,ZA,-22.94564,30.48497,0929,Africa/Johannesburg
102.171.208.108,102.171.208.109,102.171.0.0,Sousse,Sūsah,TN,35.82539,10.63699,,Africa/Tunis
103.82.187.0,103.82.187.255,103.82.0.0,Mumbai,Maharashtra,IN,19.07283,72.88261,400070,Asia/Kolkata
109.1.99.134,109.1.99.135,109.1.0.0,Apprieu,Auvergne-Rhône-Alpes,FR,45.39591,5.49993,38140,Europe/Paris
101.179.2.160,101.179.2.161,101.179.0.0,Narangba,Queensland,AU,-27.1912,153.0232,4508,Australia/Brisbane
106.213.184.128,106.213.184.128,106.213.0.0,Ahmedabad,Gujarat,IN,23.0522,72.5338,380052,Asia/Kolkata
102.25.194.128,102.25.197.63,102.25.0.0,Tunis,Tūnis,TN,36.81897,10.16579,,Africa/Tunis
101.136.145.190,101.136.145.190,101.136.0.0,Fengshan,Takao,TW,22.62659,120.36126,,Asia/Taipei
101.183.131.216,101.183.131.217,101.183.0.0,Mackay,Queensland,AU,-21.15345,149.16554,9943,Australia/Brisbane
103.54.100.0,103.54.100.255,103.54.0.0,Chandīgarh,Chandigarh,IN,30.73629,76.7884,160001,Asia/Kolkata
106.128.222.116,106.128.222.119,106.128.0.0,Kushiro,Hokkaido,JP,42.9985,144.4017,085-0001,Asia/Tokyo
103.236.204.0,103.236.211.255,103.236.0.0,Hyderābād,Telangana,IN,17.38405,78.45636,500001,Asia/Kolkata
105.109.53.128,105.109.53.128,105.109.0.0,Constantine,Constantine,DZ,36.365,6.61472,04011,Africa/Algiers
102.173.169.28,102.173.169.31,102.173.0.0,Sfax,Şafāqis,TN,34.74056,10.76028,,Africa/Tunis
107.130.130.0,107.130.130.1,107.130.0.0,Mustang,Oklahoma,US,35.38423,-97.72449,73064,America/Chicago
108.170.172.16,108.170.172.255,108.170.0.0,Parry Sound,Ontario,CA,45.34732,-80.03527,P2A,America/Toronto
101.188.77.176,101.188.77.199,101.188.0.0,Melbourne,Victoria,AU,-37.7692,145.0921,3105,Australia/Melbourne
104.169.81.91,104.169.81.91,104.169.0.0,Circleville,Ohio,US,39.60062,-82.94601,43113,America/New_York
103.38.7.16,103.38.7.31,103.38.0.0,Ranchi,Jharkhand,IN,23.34316,85.3094,834001,Asia/Kolkata
104.3.109.168,104.3.109.195,104.3.0.0,Evansville,Indiana,US,38.0599,-87.638,47720,America/Chicago
102.29.225.0,102.29.225.127,102.29.0.0,Kebili,Qibilī,TN,33.70439,8.96903,,Africa/Tunis
104.235.43.128,104.235.43.131,104.235.0.0,Caledonia,Illinois,US,42.36946,-88.8926,61011,America/Chicago
102.169.113.136,102.169.113.136,102.169.0.0,Sfax,Şafāqis,TN,34.74056,10.76028,,Africa/Tunis
106.9.136.128,106.9.136.255,106.9.0.0,Langfang,Hebei,CN,39.50972,116.69472,,Asia/Shanghai
107.0.80.94,107.0.80.109,107.0.0.0,Boston,Massachusetts,US,42.35843,-71.05977,02108,America/New_York
105.243.217.52,105.243.217.53,105.243.0.0,Cape Town,Western Cape,ZA,-33.92584,18.42322,7945,Africa/Johannesburg
101.116.94.216,101.116.94.255,101.116.0.0,Melbourne,Victoria,AU,-37.8569,144.88215,3016,Australia/Melbourne
104.234.85.0,104.234.85.255,104.234.0.0,Dallas,Texas,US,32.8038,-96.7851,75204,America/Chicago
105.44.186.255,105.44.186.255,105.44.0.0,Cairo,Cairo,EG,30.06263,31.24967,,Africa/Cairo
1.20.154.254,1.20.154.255,1.20.0.0,Phra Nakhon Si Ayutthaya,Phra Nakhon Si Ayutthaya,TH,14.35167,100.57739,13000,Asia/Bangkok
104.151.99.160,104.151.99.161,104.151.0.0,Düsseldorf,North Rhine-Westphalia,DE,51.22172,6.77616,40210,Europe/Berlin
102.170.55.66,102.170.55.66,102.170.0.0,Tunis,Tūnis,TN,36.81897,10.16579,,Africa/Tunis
106.254.141.152,106.254.141.157,106.254.0.0,Seoul,Seoul,KR,37.566,126.9784,03141,Asia/Seoul
108.241.214.96,108.241.214.255,108.241.0.0,Plano,Texas,US,33.01984,-96.69889,75026,America/Chicago
108.219.129.228,108.219.129.231,108.219.0.0,Houlton,Wisconsin,US,45.06052,-92.79132,54082,America/Chicago
108.70.25.88,108.70.25.127,108.70.0.0,Plano,Texas,US,33.025,-96.7397,75075,America/Chicago
107.142.108.0,107.142.111.255,107.142.0.0,Alameda,California,US,37.77099,-122.26087,94501,America/Los_Angeles
101.184.176.8,101.184.176.47,101.184.0.0,Sydney,New South Wales,AU,-33.92787,151.11373,2206,Australia/Sydney
102.169.66.148,102.169.66.148,102.169.0.0,Tunis,Tūnis,TN,36.81897,10.16579,,Africa/Tunis
106.72.145.0,106.72.145.255,106.72.0.0,Tokyo,Tokyo,JP,35.7559,139.698,173-0016,Asia/Tokyo
102.107.20.82,102.107.20.82,102.107.0.0,Tunis,Tūnis,TN,36.81897,10.16579,,Africa/Tunis
102.169.214.52,102.169.214.52,102.169.0.0,Sfax,Şafāqis,TN,34.74056,10.76028,,Africa/Tunis
101.177.72.148,101.177.72.179,101.177.0.0,Perth,Western Australia,AU,-32.1167,116.0056,6997,Australia/Perth
109.115.58.42,109.115.58.127,109.115.0.0,Moncalieri,Piedmont,IT,44.9994,7.68236,10024,Europe/Rome
103.183.9.128,103.183.10.146,103.183.0.0,Jakarta,Jakarta,ID,-6.21462,106.84513,,Asia/Jakarta
105.202.26.250,105.202.39.127,105.202.0.0,Cairo,Cairo,EG,30.06263,31.24967,,Africa/Cairo
105.191.112.135,105.191.112.135,105.191.0.0,Casablanca,Casablanca-Settat,MA,33.58831,-7.61138,29640,Africa/Casablanca
108.87.136.80,108.87.136.95,108.87.0.0,Jonesboro,Arkansas,US,35.7792,-90.766,72404,America/Chicago
102.26.3.0,102.26.3.255,102.26.0.0,Tunis,Tūnis,TN,36.81897,10.16579,,Africa/Tunis
102.170.231.197,102.170.231.198,102.170.0.0,Sfax,Şafāqis,TN,34.74056,10.76028,,Africa/Tunis
106.220.238.160,106.220.238.171,106.220.0.0,Pune,Maharashtra,IN,18.51957,73.85535,411001,Asia/Kolkata
105.44.39.180,105.44.39.181,105.44.0.0,Cairo,Cairo,EG,30.06263,31.24967,,Africa/Cairo
108.195.42.16,108.195.42.23,108.195.0.0,Farmington,Missouri,US,37.78088,-90.42179,63640,America/Chicago
102.168.3.145,102.168.3.158,102.168.0.0,Sousse,Sūsah,TN,35.82539,10.63699,,Africa/Tunis
101.173.107.154,101.173.107.155,101.173.0.0,Bairnsdale,Victoria,AU,-37.82289,147.61041,3875,Australia/Melbourne
103.189.95.193,103.189.95.198,103.189.0.0,Batam,Riau,ID,1.14937,104.02491,,Asia/Jakarta
107.3.43.164,107.3.43.167,107.3.0.0,Scranton,Pennsylvania,US,41.4389,-75.6625,18508,America/New_York
1.0.113.13,1.0.113.95,1.0.0.0,Tokyo,Tokyo,JP,35.6895,139.69171,101-8656,Asia/Tokyo
102.170.90.207,102.170.90.207,102.170.0.0,Sousse,Sūsah,TN,35.82539,10.63699,,Africa/Tunis
104.44.198.144,104.44.198.144,104.44.0.0,New York City,New York,US,40.71427,-74.00597,10004,America/New_York
108.203.117.228,108.203.117.239,108.203.0.0,Jacksboro,Texas,US,33.21845,-98.15866,76458,America/Chicago
102.173.102.0,102.173.102.127,102.173.0.0,Tunis,Tūnis,TN,36.81897,10.16579,,Africa/Tunis
109.113.22.0,109.113.22.127,109.113.0.0,Cassano Allo Ionio,Calabria,IT,39.78142,16.32738,87011,Europe/Rome
102.170.126.32,102.170.126.33,102.170.0.0,Sfax,Şafāqis,TN,34.74056,10.76028,,Africa/Tunis
105.148.45.128,105.148.45.255,105.148.0.0,Dar Bouazza,Casablanca-Settat,MA,33.51535,-7.81677,27223,Africa/Casablanca
104.28.44.129,104.28.44.130,104.28.0.0,Ipoh,Perak,MY,4.5841,101.0829,31450,Asia/Kuala_Lumpur
103.181.143.122,103.181.143.122,103.181.0.0,Subang,West Java,ID,-6.57,107.75667,,Asia/Jakarta
107.210.236.12,107.210.236.15,107.210.0.0,Sturgis,Kentucky,US,37.54671,-87.98391,42459,America/Chicago
104.28.195.201,104.28.195.207,104.28.0.0,Karachi,Sindh,PK,24.8608,67.0104,74000,Asia/Karachi
103.102.144.0,103.102.145.255,103.102.0.0,Mumbai,Maharashtra,IN,19.07283,72.88261,400070,Asia/Kolkata
101.109.159.182,101.109.159.182,101.109.0.0,Bangkok,Bangkok,TH,13.75398,100.50144,10200,Asia/Bangkok
1.211.162.136,1.211.163.247,1.211.0.0,Seoul,Seoul,KR,37.566,126.9784,03141,Asia/Seoul
109.115.87.214,109.115.87.214,109.115.0.0,Aviano,Friuli Venezia Giulia,IT,46.07056,12.59472,33081,Europe/Rome
107.207.10.0,107.207.13.255,107.207.0.0,San Jose,California,US,37.33939,-121.89496,95103,America/Los_Angeles
107.7.155.208,107.7.155.215,107.7.0.0,Somerville,Alabama,US,34.4996,-86.6129,35754,America/Chicago
101.173.129.232,101.173.129.239,101.173.0.0,Koroit,Victoria,AU,-38.2918,142.36729,3282,Australia/Melbourne
101.108.172.182,101.108.172.183,101.108.0.0,Thap Sakae,Prachuap Khiri Khan,TH,11.49964,99.6217,77130,Asia/Bangkok
107.204.50.0,107.204.50.255,107.204.0.0,San Antonio,Texas,US,29.5334,-98.4975,78216,America/Chicago
102.171.184.36,102.171.184.38,102.171.0.0,Sfax,Şafāqis,TN,34.74056,10.76028,,Africa/Tunis
101.178.194.32,101.178.194.63,101.178.0.0,Hobart,Tasmania,AU,-42.89335,147.317,7004,Australia/Hobart
101.51.3.0,101.51.3.127,101.51.0.0,Non Sung,Nakhon Ratchasima,TH,15.18014,102.25695,30160,Asia/Bangkok
108.110.141.128,108.110.143.255,108.110.0.0,Arbutus,Maryland,US,39.2309,-76.6969,21227,America/New_York
1.37.83.240,1.37.83.255,1.37.0.0,Lagangilang,Cordillera,PH,17.6125,120.7358,2802,Asia/Manila
108.197.24.0,108.197.26.255,108.197.0.0,Houston,Texas,US,29.9781,-95.5803,77070,America/Chicago
108.81.88.7,108.81.88.7,108.81.0.0,Tucker,Georgia,US,33.85455,-84.21714,30084,America/New_York
107.80.32.160,107.80.32.163,107.80.0.0,New York City,New York,US,40.71427,-74.00597,10004,America/New_York
103.162.241.0,103.162.241.1,103.162.0.0,Batam,Riau,ID,1.14937,104.02491,,Asia/Jakarta
102.165.161.0,102.165.163.127,102.165.0.0,Soweto,Gauteng,ZA,-26.3567,27.8333,1820,Africa/Johannesburg
105.95.73.168,105.95.73.173,105.95.0.0,Cairo,Cairo,EG,30.06263,31.24967,,Africa/Cairo
101.173.5.144,101.173.5.151,101.173.0.0,Adelaide,South Australia,AU,-34.9287,138.5986,5885,Australia/Adelaide
108.62.114.178,108.62.114.184,108.62.0.0,Manassas,Virginia,US,38.793,-77.5266,20109,America/New_York
103.39.22.0,103.39.23.255,103.39.0.0,Auckland,Auckland,NZ,-36.84853,174.76349,1010,Pacific/Auckland
109.12.67.0,109.12.67.7,109.12.0.0,La Rochelle,Nouvelle-Aquitaine,FR,46.16308,-1.15222,17000,Europe/Paris
1.212.4.136,1.212.4.143,1.212.0.0,Anyang-si,Gyeonggi-do,KR,37.3925,126.92694,13925,Asia/Seoul
102.170.114.60,102.170.114.61,102.170.0.0,Sousse,Sūsah,TN,35.82539,10.63699,,Africa/Tunis
1.145.12.240,1.145.12.255,1.145.0.0,Jindera,New South Wales,AU,-35.95474,146.88852,2642,Australia/Sydney
1.156.237.24,1.156.237.31,1.156.0.0,Cooroy Mountain,Queensland,AU,-26.42523,152.95415,4563,Australia/Brisbane
102.65.49.0,102.65.49.255,102.65.0.0,Cape Town,Western Cape,ZA,-33.9164,18.4153,8000,Africa/Johannesburg
104.168.48.128,104.168.48.255,104.168.0.0,New York City,New York,US,40.71427,-74.00597,10004,America/New_York
105.166.88.128,105.166.89.255,105.166.0.0,Nairobi,Nairobi Area,KE,-1.28333,36.81667,,Africa/Nairobi
104.56.146.0,104.56.147.255,104.56.0.0,James Island,South Carolina,US,32.72374,-79.96284,29412,America/New_York
109.102.244.123,109.102.244.123,109.102.0.0,Dersca,Botoșani,RO,47.98333,26.2,717125,Europe/Bucharest
101.167.13.148,101.167.13.155,101.167.0.0,Townsville,Queensland,AU,-19.28552,146.78998,4812,Australia/Brisbane
100.41.135.40,100.41.135.43,100.41.0.0,Philadelphia,Pennsylvania,US,39.95238,-75.16362,19099,America/New_York
100.9.165.128,100.9.165.255,100.9.0.0,Diamond Bar,California,US,34.02862,-117.81034,91765,America/Los_Angeles
104.28.126.217,104.28.126.218,104.28.0.0,Lakeland,Florida,US,28.03947,-81.9498,33804,America/New_York
107.219.98.8,107.219.98.15,107.219.0.0,Greensboro,Alabama,US,32.70415,-87.5955,36744,America/Chicago
108.122.182.128,108.122.182.255,108.122.0.0,Lima,Ohio,US,40.74255,-84.10523,45801,America/New_York
106.146.115.96,106.146.115.197,106.146.0.0,Nagoya,Aichi,JP,35.18147,136.90641,460-0002,Asia/Tokyo
1.226.93.0,1.226.93.255,1.226.0.0,Seoul,Seoul,KR,37.566,126.9784,03141,Asia/Seoul
103.144.173.192,103.144.173.223,103.144.0.0,Jangipur,West Bengal,IN,24.47001,88.07659,742213,Asia/Kolkata
103.146.225.76,103.146.225.77,103.146.0.0,Shimoga,Karnataka,IN,13.93157,75.56791,577203,Asia/Kolkata
109.117.210.19,109.117.210.25,109.117.0.0,Altamura,Apulia,IT,40.82664,16.54952,70022,Europe/Rome
103.140.30.0,103.140.30.255,103.140.0.0,Karachi,Sindh,PK,24.8608,67.0104,74000,Asia/Karachi
103.173.86.0,103.173.86.255,103.173.0.0,Kalamb,Maharashtra,IN,19.04437,73.95554,413114,Asia/Kolkata
105.109.113.108,105.109.113.109,105.109.0.0,Sétif,Sétif,DZ,36.19112,5.41373,19034,Africa/Algiers
1.200.186.67,1.200.186.67,1.200.0.0,Kaohsiung,Takao,TW,22.61626,120.31333,,Asia/Taipei
102.168.141.169,102.168.141.169,102.168.0.0,Sousse,Sūsah,TN,35.82539,10.63699,,Africa/Tunis
109.113.44.176,109.113.44.183,109.113.0.0,Acireale,Sicily,IT,37.60886,15.16577,95024,Europe/Rome
102.44.16.0,102.44.17.255,102.44.0.0,Ţanţā,Gharbia,EG,30.78847,31.00192,,Africa/Cairo
107.223.142.158,107.223.142.163,107.223.0.0,Woodward,Oklahoma,US,36.43365,-99.39039,73801,America/Chicago
105.243.203.188,105.243.203.195,105.243.0.0,Johannesburg,Gauteng,ZA,-26.20227,28.04363,2041,Africa/Johannesburg
109.147.217.70,109.147.217.82,109.147.0.0,Preston,England,GB,53.76282,-2.70452,PR1,Europe/London
108.102.39.128,108.102.40.127,108.102.0.0,Atlanta,Georgia,US,33.7278,-84.4232,30310,America/New_York
106.71.111.0,106.71.111.3,106.71.0.0,Hervey Bay,Queensland,AU,-25.28762,152.76936,4655,Australia/Brisbane
102.173.125.150,102.173.125.150,102.173.0.0,Sfax,Şafāqis,TN,34.74056,10.76028,,Africa/Tunis
101.184.67.136,101.184.67.143,101.184.0.0,Fingal Bay,New South Wales,AU,-32.77265,152.07777,2316,Australia/Sydney
103.123.204.0,103.123.207.255,103.123.0.0,Xi’an,Shaanxi,CN,34.25833,108.92861,,Asia/Shanghai
106.204.179.0,106.204.179.7,106.204.0.0,Rohtak,Haryana,IN,28.89447,76.58917,124001,Asia/Kolkata
108.221.2.54,108.221.2.54,108.221.0.0,Seattle,Washington,US,47.60621,-122.33207,98101,America/Los_Angeles
101.137.229.236,101.137.229.238,101.137.0.0,Taipei,Taiwan,TW,25.04776,121.53185,,Asia/Taipei
101.161.196.197,101.161.196.197,101.161.0.0,Wilton,New South Wales,AU,-34.24053,150.69771,2571,Australia/Sydney
101.109.79.224,101.109.79.231,101.109.0.0,Phitsanulok,Phitsanulok,TH,16.82481,100.25858,65000,Asia/Bangkok
106.180.119.0,106.180.119.255,106.180.0.0,Akita,Akita,JP,39.7007,140.1324,010-0006,Asia/Tokyo
101.115.40.0,101.115.40.127,101.115.0.0,Melbourne,Victoria,AU,-37.83767,144.6994,3029,Australia/Melbourne
102.48.31.0,102.48.33.255,102.48.0.0,Casablanca,Casablanca-Settat,MA,33.58831,-7.61138,29640,Africa/Casablanca
101.116.52.128,101.116.52.129,101.116.0.0,Adelaide,South Australia,AU,-34.74732,138.58428,5110,Australia/Adelaide
105.247.103.222,105.247.103.222,105.247.0.0,Rustenburg,North-West,ZA,-25.66756,27.24208,0202,Africa/Johannesburg
106.133.163.68,106.133.163.72,106.133.0.0,Nagoya,Aichi,JP,35.18147,136.90641,460-0002,Asia/Tokyo
1.55.12.224,1.55.12.255,1.55.0.0,Dĩ An,Bình Dương,VN,10.90682,106.7694,75306,Asia/Ho_Chi_Minh
104.200.40.41,104.200.40.41,104.200.0.0,Acampo,California,US,38.17464,-121.27856,95220,America/Los_Angeles
1.53.12.221,1.53.12.222,1.53.0.0,Vĩnh Châu,Sóc Trăng,VN,9.32439,105.98006,96850,Asia/Ho_Chi_Minh
1.156.73.59,1.156.73.65,1.156.0.0,Sydney,New South Wales,AU,-33.84915,150.93048,2164,Australia/Sydney
102.106.239.243,102.106.239.243,102.106.0.0,Sousse,Sūsah,TN,35.82539,10.63699,,Africa/Tunis
101.167.3.30,101.167.3.31,101.167.0.0,Charters Towers,Queensland,AU,-20.07671,146.26353,4820,Australia/Brisbane
106.117.233.0,106.117.255.255,106.117.0.0,Shijiazhuang,Hebei,CN,38.04139,114.47861,,Asia/Shanghai
103.84.215.96,103.84.215.111,103.84.0.0,Agra,Uttar Pradesh,IN,27.18108,78.07499,282006,Asia/Kolkata
104.178.194.48,104.178.194.75,104.178.0.0,Jacksboro,Texas,US,33.21845,-98.15866,76458,America/Chicago
109.114.129.154,109.114.129.154,109.114.0.0,Cassino,Lazio,IT,41.48581,13.82835,03043,Europe/Rome
101.139.201.72,101.139.201.79,101.139.0.0,Taichung,Taiwan,TW,24.1469,120.6839,,Asia/Taipei
108.192.78.16,108.192.78.23,108.192.0.0,Marshall,Indiana,US,39.8481,-87.18779,47859,America/Indiana/Indianapolis
104.169.134.86,104.169.134.87,104.169.0.0,Georgetown,Ohio,US,38.86451,-83.90409,45121,America/New_York
105.154.109.128,105.154.111.255,105.154.0.0,Fès,Fès-Meknès,MA,34.03313,-5.00028,30023,Africa/Casablanca
101.188.238.0,101.188.238.255,101.188.0.0,Melbourne,Victoria,AU,-37.81837,145.19847,3132,Australia/Melbourne
102.169.140.67,102.169.140.67,102.169.0.0,Sousse,Sūsah,TN,35.82539,10.63699,,Africa/Tunis
109.13.79.0,109.13.79.3,109.13.0.0,Toulon,Provence-Alpes-Côte d'Azur,FR,43.12442,5.92836,83000,Europe/Paris
105.226.130.24,105.226.130.27,105.226.0.0,Rustenburg,North-West,ZA,-25.66756,27.24208,0202,Africa/Johannesburg
104.44.17.180,104.44.17.181,104.44.0.0,Busan,Busan,KR,35.10168,129.03004,48902,Asia/Seoul
107.129.27.205,107.129.27.211,107.129.0.0,Mustang,Oklahoma,US,35.38423,-97.72449,73064,America/Chicago
109.130.108.0,109.130.108.63,109.130.0.0,Liège,Wallonia,BE,50.63373,5.56749,4000,Europe/Brussels
105.69.167.101,105.69.167.122,105.69.0.0,Casablanca,Casablanca-Settat,MA,33.58831,-7.61138,29640,Africa/Casablanca
103.153.218.0,103.153.218.255,103.153.0.0,Thuận An,Bình Dương,VN,10.9239,106.71428,,Asia/Ho_Chi_Minh
101.184.61.92,101.184.61.95,101.184.0.0,Sydney,New South Wales,AU,-33.8126,151.0584,2115,Australia/Sydney
101.178.0.110,101.178.0.143,101.178.0.0,Hobart,Tasmania,AU,-42.95785,147.31355,7050,Australia/Hobart
102.185.17.247,102.185.17.247,102.185.0.0,Alexandria,Alexandria,EG,31.20176,29.91582,,Africa/Cairo
1.112.43.96,1.112.43.99,1.112.0.0,Machida,Tokyo,JP,35.54028,139.45083,290-0267,Asia/Tokyo
106.165.252.0,106.165.252.11,106.165.0.0,Wakkanai,Hokkaido,JP,45.40944,141.67389,097-0006,Asia/Tokyo
1.52.219.208,1.52.219.215,1.52.0.0,Cầu Giấy,Hanoi,VN,21.03228,105.80073,11350,Asia/Bangkok
106.64.106.180,106.64.106.183,106.64.0.0,Taichung,Taiwan,TW,24.1469,120.6839,,Asia/Taipei
101.139.102.228,101.139.102.228,101.139.0.0,Kaohsiung,Takao,TW,22.61626,120.31333,,Asia/Taipei
1.66.97.224,1.66.97.231,1.66.0.0,Fujinomiya,Shizuoka,JP,35.2605,138.6113,418-0007,Asia/Tokyo
100.46.61.224,100.46.62.191,100.46.0.0,Austin,Texas,US,30.1876,-97.7472,78744,America/Chicago
107.175.43.246,107.175.43.246,107.175.0.0,Canton,Ohio,US,40.79895,-81.37845,44702,America/New_York
103.86.128.229,103.86.128.230,103.86.0.0,Batam,Riau,ID,1.14937,104.02491,,Asia/Jakarta
106.155.225.232,106.155.225.255,106.155.0.0,Kumagaya,Saitama,JP,36.1317,139.4254,360-0024,Asia/Tokyo
109.145.231.135,109.145.231.145,109.145.0.0,Stoke-on-Trent,England,GB,53.0249,-2.1739,ST1,Europe/London
105.202.11.228,105.202.11.228,105.202.0.0,Banī Suwayf,Beni Suweif,EG,29.07441,31.09785,,Africa/Cairo
101.166.109.224,101.166.109.231,101.166.0.0,Albion Park Rail,New South Wales,AU,-34.56634,150.79177,2527,Australia/Sydney
106.128.99.124,106.128.99.124,106.128.0.0,Nagoya,Aichi,JP,35.18147,136.90641,460-0002,Asia/Tokyo
103.172.4.0,103.172.5.255,103.172.0.0,Hyderābād,Telangana,IN,17.41545,78.4292,500081,Asia/Kolkata
102.222.36.0,102.222.39.255,102.222.0.0,Juba,Central Equatoria,SS,4.85165,31.58247,,Africa/Juba
107.144.87.32,107.144.87.35,107.144.0.0,New Port Richey,Florida,US,28.2444,-82.6986,34653,America/New_York
102.109.55.128,102.109.56.127,102.109.0.0,As Sanad,Gafsa,TN,34.4628,9.26404,,Africa/Tunis
102.66.189.138,102.66.189.138,102.66.0.0,East London,Eastern Cape,ZA,-33.01529,27.91162,5201,Africa/Johannesburg
101.165.208.82,101.165.208.83,101.165.0.0,Traralgon,Victoria,AU,-38.19528,146.5415,3844,Australia/Melbourne
106.71.243.12,106.71.243.15,106.71.0.0,Gold Coast,Queensland,AU,-28.00029,153.43088,4217,Australia/Brisbane
106.208.200.184,106.208.200.241,106.208.0.0,Ranchi,Jharkhand,IN,23.34316,85.3094,834001,Asia/Kolkata
104.44.30.58,104.44.30.58,104.44.0.0,London,England,GB,51.50853,-0.12574,EC1A,Europe/London
100.4.3.78,100.4.3.95,100.4.0.0,Norfolk,Virginia,US,36.9168,-76.2875,23505,America/New_York
106.132.106.160,106.132.106.160,106.132.0.0,Nagoya,Aichi,JP,35.18147,136.90641,460-0002,Asia/Tokyo
108.170.234.103,108.170.234.103,108.170.0.0,Warsaw,Mazovia,PL,52.22977,21.01178,00-002,Europe/Warsaw
103.1.156.50,103.1.156.61,103.1.0.0,Jakarta,Jakarta,ID,-6.21462,106.84513,,Asia/Jakarta
108.239.96.246,108.239.96.246,108.239.0.0,Magnolia,Arkansas,US,33.26707,-93.23933,71753,America/Chicago
106.66.127.202,106.66.127.204,106.66.0.0,Pune,Maharashtra,IN,18.51957,73.85535,411001,Asia/Kolkata
103.171.13.0,103.171.13.255,103.171.0.0,Villupuram,Tamil Nadu,IN,11.93975,79.49244,605602,Asia/Kolkata
102.107.88.164,102.107.88.165,102.107.0.0,Sfax,Şafāqis,TN,34.74056,10.76028,,Africa/Tunis
109.118.219.23,109.118.219.23,109.118.0.0,Milan,Lombardy,IT,45.46427,9.18951,20121,Europe/Rome
108.110.69.128,108.110.69.255,108.110.0.0,Borough Park,New York,US,40.6225,-73.965,11230,America/New_York
102.171.143.146,102.171.143.151,102.171.0.0,Sfax,Şafāqis,TN,34.74056,10.76028,,Africa/Tunis
101.139.108.165,101.139.108.175,101.139.0.0,Banqiao,Taipei,TW,25.01427,121.46719,,Asia/Taipei
102.171.128.163,102.171.128.193,102.171.0.0,Sfax,Şafāqis,TN,34.74056,10.76028,,Africa/Tunis
106.71.193.116,106.71.193.116,106.71.0.0,Bundaberg,Queensland,AU,-24.86621,152.3479,4670,Australia/Brisbane
106.208.91.0,106.208.91.15,106.208.0.0,Chennai,Tamil Nadu,IN,13.0734,80.2069,600106,Asia/Kolkata
105.93.205.68,105.93.205.69,105.93.0.0,Banī Suwayf,Beni Suweif,EG,29.07441,31.09785,,Africa/Cairo
106.213.182.186,106.213.182.187,106.213.0.0,Ahmedabad,Gujarat,IN,23.02579,72.58727,380001,Asia/Kolkata
104.97.72.0,104.97.75.255,104.97.0.0,Porto Alegre,Rio Grande do Sul,BR,-30.03283,-51.23019,90000-000,America/Sao_Paulo
108.208.12.0,108.208.15.255,108.208.0.0,Jackson,Mississippi,US,32.3739,-90.1293,39211,America/Chicago
109.145.42.107,109.145.42.111,109.145.0.0,Morecambe,England,GB,54.06835,-2.86108,LA4,Europe/London
109.15.60.128,109.15.60.255,109.15.0.0,Paris,Île-de-France,FR,48.85341,2.3488,75000,Europe/Paris
1.145.13.184,1.145.13.191,1.145.0.0,Canberra,Australian Capital Territory,AU,-35.33383,149.09357,2605,Australia/Sydney
109.142.137.50,109.142.137.51,109.142.0.0,Gullegem,Flanders,BE,50.84301,3.20466,8560,Europe/Brussels
107.175.106.0,107.175.107.255,107.175.0.0,Port Huron,Michigan,US,42.97086,-82.42491,48061,America/Detroit
102.170.254.234,102.170.254.234,102.170.0.0,Sousse,Sūsah,TN,35.82539,10.63699,,Africa/Tunis
106.180.11.171,106.180.11.173,106.180.0.0,Morioka,Iwate,JP,39.7,141.15,020-0015,Asia/Tokyo
102.38.20.0,102.38.23.255,102.38.0.0,Tājūrā’,Tripoli,LY,32.88167,13.35056,,Africa/Tripoli
101.188.21.18,101.188.21.18,101.188.0.0,Colac,Victoria,AU,-38.339,143.58489,3250,Australia/Melbourne
101.177.203.184,101.177.203.191,101.177.0.0,Gold Coast,Queensland,AU,-28.05647,153.3845,4226,Australia/Brisbane
106.255.116.15,106.255.116.15,106.255.0.0,Hongseong,Chungcheongnam-do,KR,36.6009,126.665,32218,Asia/Seoul
107.107.60.196,107.107.60.199,107.107.0.0,Brewerton,New York,US,43.23812,-76.14076,13029,America/New_York
105.251.18.192,105.251.18.223,105.251.0.0,Port Elizabeth,Eastern Cape,ZA,-33.9,25.6,6202,Africa/Johannesburg
106.66.99.0,106.66.99.15,106.66.0.0,Ujjain,Madhya Pradesh,IN,23.18239,75.77643,456664,Asia/Kolkata
1.79.102.204,1.79.102.204,1.79.0.0,Sapporo,Hokkaido,JP,43.06667,141.35,065-0010,Asia/Tokyo
102.106.199.87,102.106.199.87,102.106.0.0,Monastir,Al Munastīr,TN,35.77799,10.82617,,Africa/Tunis
106.203.151.140,106.203.151.143,106.203.0.0,North Guwāhāti,Assam,IN,26.13575,91.6256,781027,Asia/Kolkata
101.136.249.0,101.136.249.3,101.136.0.0,Taoyuan City,Taiwan,TW,24.99368,121.29696,,Asia/Taipei
106.68.124.64,106.68.124.96,106.68.0.0,Perth,Western Australia,AU,-31.9587,115.8711,6892,Australia/Perth
101.181.66.176,101.181.66.183,101.181.0.0,Melbourne,Victoria,AU,-37.8771,145.053,3145,Australia/Melbourne
109.140.154.168,109.140.154.175,109.140.0.0,Angleur,Wallonia,BE,50.6113,5.59942,4031,Europe/Brussels
104.200.42.144,104.200.42.146,104.200.0.0,El Nido,California,US,37.13494,-120.49213,95317,America/Los_Angeles
1.159.45.64,1.159.45.79,1.159.0.0,Moe,Victoria,AU,-38.17828,146.26099,3825,Australia/Melbourne
104.142.140.117,104.142.140.117,104.142.0.0,Chicago,Illinois,US,41.85003,-87.65005,60666,America/Chicago
106.203.48.120,106.203.48.159,106.203.0.0,Ramanathapuram,Tamil Nadu,IN,9.37158,78.83077,613004,Asia/Kolkata
1.20.25.240,1.20.25.241,1.20.0.0,Ban Mai,Songkhla,TH,7.20411,100.54508,90120,Asia/Bangkok
1.245.110.0,1.245.110.255,1.245.0.0,Daejeon,Daejeon,KR,36.3549,127.3935,35247,Asia/Seoul
102.53.91.22,102.53.91.22,102.53.0.0,Meknès,Fès-Meknès,MA,33.89352,-5.54727,50102,Africa/Casablanca
105.203.66.144,105.203.66.147,105.203.0.0,Al Minyā,Minya,EG,28.09193,30.75813,,Africa/Cairo
103.223.137.128,103.223.137.139,103.223.0.0,Nuriootpa,South Australia,AU,-34.46825,138.99767,5355,Australia/Adelaide
107.200.60.0,107.200.60.255,107.200.0.0,Beverly Hills,California,US,34.1514,-118.4603,91403,America/Los_Angeles
102.109.63.16,102.109.63.16,102.109.0.0,Sfax,Şafāqis,TN,34.74056,10.76028,,Africa/Tunis
103.235.176.232,103.235.176.235,103.235.0.0,Aībak,Samangan,AF,36.26468,68.01551,,Asia/Kabul
109.117.249.198,109.117.249.199,109.117.0.0,Palermo,Sicily,IT,38.1166,13.3636,90100,Europe/Rome
1.42.104.160,1.42.104.191,1.42.0.0,Sydney,New South Wales,AU,-33.8799,151.0093,2162,Australia/Sydney
102.244.124.96,102.244.124.127,102.244.0.0,Bertoua,East,CM,4.57728,13.68459,,Africa/Douala
108.78.180.0,108.78.183.255,108.78.0.0,Nashville,Tennessee,US,36.16589,-86.78444,37201,America/Chicago
106.167.32.0,106.167.32.255,106.167.0.0,Kawasaki,Kanagawa,JP,35.634,139.5475,214-0011,Asia/Tokyo
108.216.35.218,108.216.35.218,108.216.0.0,Ripley,Mississippi,US,34.72982,-88.95062,38663,America/Chicago
108.114.228.0,108.114.228.127,108.114.0.0,Springfield,Massachusetts,US,42.0999,-72.5783,01105,America/New_York
104.57.129.24,104.57.129.31,104.57.0.0,Hugo,Oklahoma,US,34.01066,-95.50968,74743,America/Chicago
106.205.87.221,106.205.87.221,106.205.0.0,Bengaluru,Karnataka,IN,12.97194,77.59369,560002,Asia/Kolkata
106.222.21.156,106.222.21.159,106.222.0.0,Rājkot,Gujarat,IN,22.29161,70.79322,360004,Asia/Kolkata
109.129.215.236,109.129.219.187,109.129.0.0,Gent,Flanders,BE,51.05,3.71667,9000,Europe/Brussels
103.22.237.0,103.22.237.255,103.22.0.0,Chennai,Tamil Nadu,IN,13.08784,80.27847,600001,Asia/Kolkata
102.177.172.144,102.177.172.147,102.177.0.0,Machala,El Oro,EC,-3.25861,-79.96053,,America/Guayaquil
102.169.38.217,102.169.38.219,102.169.0.0,Sousse,Sūsah,TN,35.82539,10.63699,,Africa/Tunis
102.170.5.236,102.170.5.236,102.170.0.0,Sfax,Şafāqis,TN,34.74056,10.76028,,Africa/Tunis
104.44.230.68,104.44.230.75,104.44.0.0,Amsterdam,North Holland,NL,52.37403,4.88969,1012,Europe/Amsterdam
105.202.10.242,105.202.10.244,105.202.0.0,Cairo,Cairo,EG,30.06263,31.24967,,Africa/Cairo
102.211.87.128,102.211.87.255,102.211.0.0,Tehran,Tehran,IR,35.69439,51.42151,,Asia/Tehran
1.47.196.196,1.47.196.197,1.47.0.0,Khong Chiam,Ubon Ratchathani,TH,15.31856,105.49506,34220,Asia/Bangkok
106.181.177.220,106.181.177.231,106.181.0.0,Hiroshima,Hiroshima,JP,34.4584,132.3996,731-3198,Asia/Tokyo
108.119.10.128,108.119.10.135,108.119.0.0,Del Rio,Texas,US,29.4102,-100.8932,78840,America/Chicago
1.227.170.8,1.227.170.91,1.227.0.0,Daejeon,Daejeon,KR,36.34913,127.38493,35228,Asia/Seoul
108.232.107.130,108.232.107.131,108.232.0.0,Los Molinos,California,US,40.02127,-122.10027,96055,America/Los_Angeles
104.28.99.62,104.28.99.63,104.28.0.0,Weifang,Shandong,CN,36.71,119.10194,,Asia/Shanghai
108.116.198.56,108.116.198.59,108.116.0.0,Manatee Road,Florida,US,29.51302,-82.91429,32626,America/New_York
106.13.219.224,106.13.219.255,106.13.0.0,Beijing,Beijing,CN,39.9075,116.39723,,Asia/Shanghai
104.182.84.32,104.182.84.39,104.182.0.0,Washington,"Washington, D.C.",US,38.89511,-77.03637,20004,America/New_York
102.169.234.238,102.169.234.239,102.169.0.0,Sousse,Sūsah,TN,35.82539,10.63699,,Africa/Tunis
101.108.154.249,101.108.155.207,101.108.0.0,Bangkok,Bangkok,TH,13.75398,100.50144,10200,Asia/Bangkok
108.12.62.80,108.12.62.87,108.12.0.0,Fort Plain,New York,US,42.93146,-74.62264,13339,America/New_York
104.165.146.0,104.165.146.255,104.165.0.0,Panamá,Panamá,PA,8.9936,-79.51973,,America/Panama
106.129.15.207,106.129.15.207,106.129.0.0,Osaka,Ōsaka,JP,34.69374,135.50218,543-0062,Asia/Tokyo
109.142.97.12,109.142.97.15,109.142.0.0,Bredene,Flanders,BE,51.23489,2.97559,8450,Europe/Brussels
105.93.141.187,105.93.141.191,105.93.0.0,Cairo,Cairo,EG,30.06263,31.24967,,Africa/Cairo
103.179.221.0,103.179.221.255,103.179.0.0,Sihor,Gujarat,IN,23.01603,70.24212,364290,Asia/Kolkata
106.69.198.192,106.69.198.215,106.69.0.0,Canberra,Australian Capital Territory,AU,-35.20998,149.03596,2615,Australia/Sydney
103.59.191.78,103.59.191.109,103.59.0.0,Mumbai,Maharashtra,IN,19.07283,72.88261,400070,Asia/Kolkata
102.107.21.105,102.107.21.108,102.107.0.0,Sousse,Sūsah,TN,35.82539,10.63699,,Africa/Tunis
107.241.225.252,107.241.225.255,107.241.0.0,New Martinsville,West Virginia,US,39.64452,-80.8576,26155,America/New_York
106.67.30.9,106.67.30.9,106.67.0.0,Patna,Bihar,IN,25.59408,85.13563,800001,Asia/Kolkata
104.1.31.134,104.1.31.134,104.1.0.0,Moline,Illinois,US,41.4906,-90.498,61265,America/Chicago
106.180.166.214,106.180.166.220,106.180.0.0,Tokyo,Tokyo,JP,35.6895,139.69171,101-8656,Asia/Tokyo
1.158.48.182,1.158.48.189,1.158.0.0,Sydney,New South Wales,AU,-33.86785,151.20732,1001,Australia/Sydney
102.169.207.54,102.169.207.54,102.169.0.0,Sousse,Sūsah,TN,35.82539,10.63699,,Africa/Tunis
1.157.150.236,1.157.150.255,1.157.0.0,Sydney,New South Wales,AU,-33.86785,151.20732,1001,Australia/Sydney
101.137.145.100,101.137.145.103,101.137.0.0,Chang-hua,Taiwan,TW,24.07327,120.56276,,Asia/Taipei
108.177.68.111,108.177.68.111,108.177.0.0,Culpeper,Virginia,US,38.47318,-77.99666,22701,America/New_York
106.133.231.220,106.133.231.220,106.133.0.0,Osaka,Ōsaka,JP,34.69374,135.50218,543-0062,Asia/Tokyo
109.117.237.164,109.117.237.176,109.117.0.0,Mammola,Calabria,IT,38.36262,16.23871,89045,Europe/Rome
102.185.12.49,102.185.12.49,102.185.0.0,Alexandria,Alexandria,EG,31.20176,29.91582,,Africa/Cairo
103.210.27.8,103.210.27.15,103.210.0.0,Sydney,New South Wales,AU,-33.7833,150.9333,1730,Australia/Sydney
108.244.187.128,108.244.187.255,108.244.0.0,Richardson,Texas,US,32.94818,-96.72972,75080,America/Chicago
107.1.9.208,107.1.9.223,107.1.0.0,Mechanicsville,Virginia,US,37.60876,-77.37331,23111,America/New_York
101.139.104.242,101.139.104.243,101.139.0.0,Taipei,Taiwan,TW,25.04776,121.53185,,Asia/Taipei
108.178.141.212,108.178.141.215,108.178.0.0,Los Angeles,California,US,34.066,-118.474,90049,America/Los_Angeles
106.210.131.172,106.210.131.175,106.210.0.0,Ichalkaranji,Maharashtra,IN,16.69117,74.46054,416118,Asia/Kolkata
103.76.170.48,103.76.170.63,103.76.0.0,Padang,West Sumatra,ID,-0.94924,100.35427,,Asia/Jakarta
108.178.141.136,108.178.141.139,108.178.0.0,San Diego,California,US,32.9555,-117.2252,92130,America/Los_Angeles
100.35.23.0,100.35.23.255,100.35.0.0,New Brunswick,New Jersey,US,40.48622,-74.45182,08901,America/New_York
102.171.152.64,102.171.152.65,102.171.0.0,Sousse,Sūsah,TN,35.82539,10.63699,,Africa/Tunis
101.138.6.244,101.138.6.245,101.138.0.0,Tainan,Taiwan,TW,22.99083,120.21333,,Asia/Taipei
1.10.188.82,1.10.188.82,1.10.0.0,Wiang Chai,Chiang Rai,TH,19.88361,99.93314,57210,Asia/Bangkok
108.211.135.188,108.211.135.191,108.211.0.0,Calexico,California,US,32.67895,-115.49888,92231,America/Los_Angeles
101.50.94.192,101.50.94.199,101.50.0.0,Gujranwala,Punjab,PK,32.15567,74.18705,52250,Asia/Karachi
104.200.90.36,104.200.90.63,104.200.0.0,Sainte Catherine de la Jacques Cartier,Quebec,CA,46.85244,-71.62056,G3N,America/Toronto
109.0.78.252,109.0.78.255,109.0.0.0,Lyon,Auvergne-Rhône-Alpes,FR,45.74846,4.84671,69000,Europe/Paris
1.0.171.128,1.0.171.255,1.0.0.0,Thung Song,Nakhon Si Thammarat,TH,8.16453,99.68039,80110,Asia/Bangkok
109.145.178.215,109.145.178.215,109.145.0.0,Newtownabbey,Northern Ireland,GB,54.65983,-5.90858,BT36,Europe/London
106.71.63.172,106.71.63.175,106.71.0.0,Gold Coast,Queensland,AU,-28.00029,153.43088,4217,Australia/Brisbane
104.15.137.218,104.15.137.219,104.15.0.0,Poplar Bluff,Missouri,US,36.757,-90.39289,63901,America/Chicago
107.19.188.52,107.19.188.59,107.19.0.0,Grove City,Pennsylvania,US,41.15784,-80.08867,16127,America/New_York
103.55.78.182,103.55.78.183,103.55.0.0,Sydney,New South Wales,AU,-33.86785,151.20732,1001,Australia/Sydney
104.156.166.37,104.156.166.255,104.156.0.0,Toronto,Ontario,CA,43.70011,-79.4163,M5A,America/Toronto
101.72.107.192,101.72.108.191,101.72.0.0,Shijiazhuang,Hebei,CN,38.04139,114.47861,,Asia/Shanghai
102.173.94.131,102.173.94.132,102.173.0.0,Sousse,Sūsah,TN,35.82539,10.63699,,Africa/Tunis
103.140.237.42,103.140.237.42,103.140.0.0,Phnom Penh,Phnom Penh,KH,11.56245,104.91601,,Asia/Phnom_Penh
103.156.14.144,103.156.14.155,103.156.0.0,Palembang,South Sumatra,ID,-2.91673,104.7458,,Asia/Jakarta
106.181.173.100,106.181.173.101,106.181.0.0,Hatsudai,Tokyo,JP,35.67729,139.68588,151-0061,Asia/Tokyo
101.189.219.240,101.189.219.247,101.189.0.0,Brisbane,Queensland,AU,-27.4679,153.0281,9019,Australia/Brisbane
104.183.40.169,104.183.40.169,104.183.0.0,Soledad,California,US,36.42469,-121.32632,93960,America/Los_Angeles
106.174.39.0,106.174.39.255,106.174.0.0,Sendai,Miyagi,JP,38.263,140.8059,982-0261,Asia/Tokyo
101.167.30.144,101.167.30.145,101.167.0.0,Townsville,Queensland,AU,-19.39452,146.70322,4815,Australia/Brisbane
109.110.129.236,109.110.129.255,109.110.0.0,Badacsonytomaj,Veszprém,HU,46.80711,17.51385,8257,Europe/Budapest
101.116.199.16,101.116.199.31,101.116.0.0,Adelaide,South Australia,AU,-35.00753,138.54373,5046,Australia/Adelaide
108.94.0.172,108.94.0.173,108.94.0.0,Watsonville,California,US,36.91023,-121.75689,95076,America/Los_Angeles
1.9.191.192,1.9.191.223,1.9.0.0,Kuala Terengganu,Terengganu,MY,5.3302,103.1408,20680,Asia/Kuala_Lumpur
106.66.124.148,106.66.124.148,106.66.0.0,Chennai,Tamil Nadu,IN,13.08784,80.27847,600001,Asia/Kolkata
1.46.68.0,1.46.68.15,1.46.0.0,Krasae Sin,Songkhla,TH,7.61548,100.32842,90140,Asia/Bangkok
106.70.220.64,106.70.220.95,106.70.0.0,Innisfail,Queensland,AU,-17.52209,146.03102,4860,Australia/Brisbane
107.135.206.0,107.135.206.127,107.135.0.0,Iron River,Michigan,US,46.09273,-88.64235,49935,America/Menominee
101.174.21.46,101.174.21.51,101.174.0.0,Adelaide,South Australia,AU,-34.92866,138.59863,5000,Australia/Adelaide
102.168.101.224,102.168.101.224,102.168.0.0,Sousse,Sūsah,TN,35.82539,10.63699,,Africa/Tunis
1.20.13.104,1.20.13.115,1.20.0.0,Samut Prakan,Samut Prakan,TH,13.59934,100.59675,10270,Asia/Bangkok
101.138.56.88,101.138.56.95,101.138.0.0,Kaohsiung,Takao,TW,22.61626,120.31333,,Asia/Taipei
101.139.18.248,101.139.18.255,101.139.0.0,Fengshan,Takao,TW,22.62659,120.36126,,Asia/Taipei
102.32.179.196,102.32.179.197,102.32.0.0,Howick,KwaZulu-Natal,ZA,-29.47795,30.23057,3224,Africa/Johannesburg
1.122.235.48,1.122.235.255,1.122.0.0,Perth,Western Australia,AU,-31.9587,115.8711,6892,Australia/Perth
106.165.244.70,106.165.244.71,106.165.0.0,Asahikawa,Hokkaido,JP,43.77063,142.36489,070-0021,Asia/Tokyo
109.115.193.128,109.115.193.143,109.115.0.0,Pescara,Abruzzo,IT,42.4584,14.2028,65126,Europe/Rome
1.10.249.170,1.10.249.171,1.10.0.0,Prachuap Khiri Khan,Prachuap Khiri Khan,TH,11.82098,99.7841,77000,Asia/Bangkok
105.243.221.184,105.243.221.216,105.243.0.0,Johannesburg,Gauteng,ZA,-26.20227,28.04363,2041,Africa/Johannesburg
103.133.111.0,103.133.111.7,103.133.0.0,Cẩm Phả Mines,Quảng Ninh,VN,21.01667,107.3,01250,Asia/Bangkok
107.211.0.192,107.211.0.255,107.211.0.0,Brownsville,Texas,US,25.9337,-97.5174,78520,America/Chicago
108.205.232.128,108.205.232.145,108.205.0.0,Kirksville,Missouri,US,40.19475,-92.58325,63501,America/Chicago
1.158.116.127,1.158.116.135,1.158.0.0,Sydney,New South Wales,AU,-33.758,150.67319,2750,Australia/Sydney
101.186.142.24,101.186.142.27,101.186.0.0,Shepparton,Victoria,AU,-36.3805,145.3987,3632,Australia/Melbourne
104.47.74.0,104.47.74.127,104.47.0.0,Boydton,Virginia,US,36.66764,-78.3875,23917,America/New_York
107.19.9.8,107.19.9.8,107.19.0.0,New Orleans,Louisiana,US,29.9379,-90.0331,70114,America/Chicago
103.173.105.88,103.173.105.89,103.173.0.0,Tokyo,Tokyo,JP,35.691,139.7679,101-0047,Asia/Tokyo
101.116.221.24,101.116.221.31,101.116.0.0,Austins Ferry,Tasmania,AU,-42.76667,147.25,7011,Australia/Hobart
1.47.74.221,1.47.74.221,1.47.0.0,Khun Han,Si Sa Ket,TH,14.61739,104.42506,33150,Asia/Bangkok
101.190.106.152,101.190.106.183,101.190.0.0,Sydney,New South Wales,AU,-33.88385,151.1646,2048,Australia/Sydney
105.71.144.106,105.71.144.106,105.71.0.0,Fès,Fès-Meknès,MA,34.03313,-5.00028,30023,Africa/Casablanca
101.162.78.155,101.162.78.155,101.162.0.0,Elimbah,Queensland,AU,-27.12865,152.91115,4506,Australia/Brisbane
1.39.129.64,1.39.129.95,1.39.0.0,Bhatkal,Karnataka,IN,13.98534,74.55531,581320,Asia/Kolkata
1.250.139.0,1.250.139.255,1.250.0.0,Kimje,Jeollabuk-do,KR,35.8028,126.898,54395,Asia/Seoul
1.109.79.128,1.109.79.131,1.109.0.0,Gunsan,Jeollabuk-do,KR,35.97861,126.71139,54022,Asia/Seoul
106.181.82.0,106.181.82.7,106.181.0.0,Mishima,Shizuoka,JP,35.0817,138.9575,419-0112,Asia/Tokyo
101.174.221.128,101.174.221.143,101.174.0.0,Wilberforce,New South Wales,AU,-33.56256,150.83784,2756,Australia/Sydney
103.43.72.0,103.43.74.255,103.43.0.0,Sydney,New South Wales,AU,-33.86785,151.20732,1001,Australia/Sydney
1.158.199.172,1.158.199.183,1.158.0.0,Adelaide,South Australia,AU,-34.98164,138.59226,5041,Australia/Adelaide
105.204.205.238,105.204.205.238,105.204.0.0,Al Minyā,Minya,EG,28.09193,30.75813,,Africa/Cairo
104.169.136.209,104.169.136.209,104.169.0.0,South Webster,Ohio,US,38.81341,-82.72683,45682,America/New_York
103.173.152.216,103.173.152.219,103.173.0.0,Bhairab Bāzār,Dhaka,BD,24.0524,90.9764,2340,Asia/Dhaka
104.192.153.192,104.192.153.215,104.192.0.0,Sylvan Lake,Alberta,CA,52.311,-114.08375,T4S,America/Edmonton
1.52.34.14,1.52.34.15,1.52.0.0,Ho Chi Minh City,Ho Chi Minh,VN,10.82302,106.62965,71606,Asia/Ho_Chi_Minh
104.235.45.122,104.235.45.122,104.235.0.0,Granville,Illinois,US,41.26115,-89.22759,61326,America/Chicago
104.235.93.156,104.235.93.160,104.235.0.0,DeKalb,Illinois,US,41.92947,-88.75036,60115,America/Chicago
105.109.27.18,105.109.27.18,105.109.0.0,Sétif,Sétif,DZ,36.19112,5.41373,19034,Africa/Algiers
1.2.224.32,1.2.224.63,1.2.0.0,Muak Lek,Saraburi,TH,14.65287,101.20022,18180,Asia/Bangkok
108.179.210.111,108.179.211.255,108.179.0.0,East Point,Georgia,US,33.67955,-84.43937,30344,America/New_York
101.138.219.64,101.138.219.79,101.138.0.0,Taichung,Taiwan,TW,24.1469,120.6839,,Asia/Taipei
1.251.177.0,1.251.177.255,1.251.0.0,Daegu,Daegu,KR,35.8402,128.5434,42676,Asia/Seoul
100.14.110.0,100.14.110.217,100.14.0.0,West Chester,Pennsylvania,US,39.9441,-75.5882,19382,America/New_York
106.64.152.128,106.64.152.135,106.64.0.0,Taichung,Taiwan,TW,24.1469,120.6839,,Asia/Taipei
105.36.169.128,105.36.169.255,105.36.0.0,Port Said,Port Said,EG,31.26531,32.3019,,Africa/Cairo
107.116.126.43,107.116.149.255,107.116.0.0,Redmond,Washington,US,47.67399,-122.12151,98052,America/Los_Angeles
106.79.79.128,106.79.79.142,106.79.0.0,Pune,Maharashtra,IN,18.51957,73.85535,411001,Asia/Kolkata
106.130.3.64,106.130.3.65,106.130.0.0,Fukuoka,Fukuoka,JP,33.6,130.41667,812-0024,Asia/Tokyo
102.169.49.125,102.169.49.125,102.169.0.0,Tunis,Tūnis,TN,36.81897,10.16579,,Africa/Tunis
103.44.84.0,103.44.87.255,103.44.0.0,Nagakute,Aichi,JP,35.17325,137.05667,480-1100,Asia/Tokyo
101.138.76.0,101.138.76.7,101.138.0.0,Yongkang,Taiwan,TW,23.02444,120.25556,,Asia/Taipei
101.33.169.0,101.33.169.127,101.33.0.0,Shenzhen,Guangdong,CN,22.54554,114.0683,,Asia/Shanghai
102.109.151.28,102.109.151.31,102.109.0.0,Monastir,Al Munastīr,TN,35.77799,10.82617,,Africa/Tunis
103.143.6.221,103.143.6.241,103.143.0.0,Saint Thomas Mount,Tamil Nadu,IN,13.00334,80.19614,600088,Asia/Kolkata
105.109.32.118,105.109.32.118,105.109.0.0,Constantine,Constantine,DZ,36.365,6.61472,04011,Africa/Algiers
105.109.28.22,105.109.28.23,105.109.0.0,Constantine,Constantine,DZ,36.365,6.61472,04011,Africa/Algiers
101.184.174.216,101.184.174.219,101.184.0.0,Holmesville,New South Wales,AU,-32.91667,151.58333,2286,Australia/Sydney
104.4.196.0,104.4.196.255,104.4.0.0,Milwaukee,Wisconsin,US,43.0493,-88.0414,53226,America/Chicago
101.1.69.0,101.1.69.255,101.1.0.0,Hiroshima,Hiroshima,JP,34.4984,132.4951,731-0101,Asia/Tokyo
107.220.132.0,107.220.132.27,107.220.0.0,Dallas,North Carolina,US,35.31653,-81.17619,28034,America/New_York
102.171.108.176,102.171.108.177,102.171.0.0,Sousse,Sūsah,TN,35.82539,10.63699,,Africa/Tunis
103.83.103.0,103.83.103.255,103.83.0.0,Singapore,,SG,1.28967,103.85007,018989,Asia/Singapore
1.107.219.0,1.107.219.255,1.107.0.0,Osan,Gyeonggi-do,KR,37.15222,127.07056,18115,Asia/Seoul
102.106.103.166,102.106.103.167,102.106.0.0,Sousse,Sūsah,TN,35.82539,10.63699,,Africa/Tunis
104.235.115.156,104.235.115.159,104.235.0.0,Hillsdale,Illinois,US,41.61364,-90.1729,61257,America/Chicago
1.157.211.192,1.157.211.207,1.157.0.0,Sydney,New South Wales,AU,-34.01973,151.01296,2234,Australia/Sydney
101.100.152.79,101.100.152.79,101.100.0.0,Pareora,Canterbury,NZ,-44.5,171.2,7912,Pacific/Auckland
105.44.39.142,105.44.39.149,105.44.0.0,Suez,Suez,EG,29.97371,32.52627,,Africa/Cairo
106.129.197.0,106.129.197.7,106.129.0.0,Tachiarai,Fukuoka,JP,33.4326,130.5925,838-0212,Asia/Tokyo
1.145.69.112,1.145.69.115,1.145.0.0,Sydney,New South Wales,AU,-33.8878,151.1264,2131,Australia/Sydney
101.190.218.176,101.190.218.177,101.190.0.0,Newcastle,New South Wales,AU,-33.02476,151.65881,2280,Australia/Sydney
102.168.101.234,102.168.101.235,102.168.0.0,Sousse,Sūsah,TN,35.82539,10.63699,,Africa/Tunis
1.122.16.216,1.122.16.219,1.122.0.0,Wesley Vale,Tasmania,AU,-41.20863,146.45554,7307,Australia/Hobart
101.100.154.32,101.100.154.63,101.100.0.0,Whangamata,Waikato,NZ,-37.2,175.8667,3691,Pacific/Auckland
1.15.240.224,1.15.240.255,1.15.0.0,Shenzhen,Guangdong,CN,22.54554,114.0683,,Asia/Shanghai
102.171.4.214,102.171.4.215,102.171.0.0,Sousse,Sūsah,TN,35.82539,10.63699,,Africa/Tunis
106.215.100.1,106.215.100.1,106.215.0.0,Allahābād,Uttar Pradesh,IN,25.44478,81.84322,211002,Asia/Kolkata
101.43.9.208,101.43.9.223,101.43.0.0,Shanghai,Shanghai,CN,31.22222,121.45806,,Asia/Shanghai
104.254.101.213,104.254.101.213,104.254.0.0,Madera,California,US,36.9403,-120.082,93637,America/Los_Angeles
108.173.233.248,108.173.233.255,108.173.0.0,Calgary,Alberta,CA,50.9894,-114.052,T2H,America/Edmonton
105.204.233.181,105.204.233.184,105.204.0.0,Al Minyā,Minya,EG,28.09193,30.75813,,Africa/Cairo
103.182.86.0,103.182.87.255,103.182.0.0,Indore,Madhya Pradesh,IN,22.62589,75.92778,452020,Asia/Kolkata
104.0.52.42,104.0.52.42,104.0.0.0,Oshkosh,Wisconsin,US,44.02471,-88.54261,54901,America/Chicago
1.0.167.139,1.0.167.140,1.0.0.0,Surat Thani,Surat Thani,TH,9.14011,99.33311,84150,Asia/Bangkok
106.252.249.252,106.252.249.255,106.252.0.0,Daejeon,Daejeon,KR,36.34913,127.38493,35228,Asia/Seoul
102.109.151.68,102.109.151.68,102.109.0.0,Monastir,Al Munastīr,TN,35.77799,10.82617,,Africa/Tunis
106.194.190.96,106.194.190.111,106.194.0.0,Bhilai,Chhattisgarh,IN,21.14837,81.3755,491107,Asia/Kolkata
102.66.118.145,102.66.118.145,102.66.0.0,Louis Trichardt,Limpopo,ZA,-23.04385,29.90319,0901,Africa/Johannesburg
104.13.105.56,104.13.105.57,104.13.0.0,Lima,Ohio,US,40.74255,-84.10523,45801,America/New_York
103.110.91.174,103.110.91.196,103.110.0.0,Batam,Riau,ID,1.14937,104.02491,,Asia/Jakarta
1.219.91.29,1.219.91.255,1.219.0.0,Seoul,Seoul,KR,37.566,126.9784,03141,Asia/Seoul
103.123.66.64,103.123.66.111,103.123.0.0,Bandung,West Java,ID,-6.92222,107.60694,,Asia/Jakarta
109.112.30.36,109.112.30.39,109.112.0.0,Milan,Lombardy,IT,45.46427,9.18951,20121,Europe/Rome
103.94.180.0,103.94.183.255,103.94.0.0,Dili,Díli,TL,-8.55861,125.57361,,Asia/Dili
107.80.128.120,107.80.128.120,107.80.0.0,Monahans,Texas,US,31.5943,-102.89265,79756,America/Chicago
101.100.130.244,101.100.130.244,101.100.0.0,Wellington,Wellington,NZ,-41.28664,174.77557,6021,Pacific/Auckland
109.147.171.12,109.147.171.15,109.147.0.0,Ingleby Greenhow,England,GB,54.44983,-1.10687,TS9,Europe/London
1.52.192.104,1.52.192.107,1.52.0.0,Rạch Giá,Kiến Giang,VN,10.01245,105.08091,91150,Asia/Ho_Chi_Minh
108.119.126.0,108.119.126.127,108.119.0.0,Howe,Texas,US,33.50872,-96.61221,75459,America/Chicago
103.216.153.224,103.216.153.255,103.216.0.0,Shijiazhuang,Hebei,CN,38.04139,114.47861,,Asia/Shanghai
104.240.41.206,104.240.41.213,104.240.0.0,Shiprock,New Mexico,US,36.78555,-108.68703,87420,America/Denver
106.204.79.172,106.204.79.173,106.204.0.0,Ludhiāna,Punjab,IN,30.91204,75.85379,141120,Asia/Kolkata
106.203.46.10,106.203.46.11,106.203.0.0,Tiruchirappalli,Tamil Nadu,IN,10.8155,78.69651,620012,Asia/Kolkata
109.147.145.128,109.147.145.191,109.147.0.0,Hove,England,GB,50.8344,-0.1681,BN52,Europe/London
101.183.34.33,101.183.34.35,101.183.0.0,Sydney,New South Wales,AU,-33.86785,151.20732,1001,Australia/Sydney
101.136.0.162,101.136.0.163,101.136.0.0,Xinying,Taiwan,TW,23.30694,120.31056,,Asia/Taipei
1.6.251.16,1.6.251.23,1.6.0.0,Delhi,Delhi,IN,28.65195,77.23149,110001,Asia/Kolkata
106.66.99.119,106.66.99.119,106.66.0.0,Pune,Maharashtra,IN,18.51957,73.85535,411001,Asia/Kolkata
101.112.177.206,101.112.177.227,101.112.0.0,Sydney,New South Wales,AU,-33.9588,150.8542,2174,Australia/Sydney
101.188.147.60,101.188.147.63,101.188.0.0,Brisbane,Queensland,AU,-27.4679,153.0281,9019,Australia/Brisbane
106.193.65.254,106.193.65.255,106.193.0.0,Mysore,Karnataka,IN,12.29791,76.63925,570028,Asia/Kolkata
102.40.94.224,102.40.94.255,102.40.0.0,Luxor,Luxor,EG,25.69893,32.6421,,Africa/Cairo
105.154.149.68,105.154.149.68,105.154.0.0,Temara,Rabat-Salé-Kénitra,MA,33.92866,-6.90656,12200,Africa/Casablanca
1.157.165.230,1.157.165.231,1.157.0.0,Bowral,New South Wales,AU,-34.4775,150.4204,2576,Australia/Sydney
104.129.205.159,104.129.205.168,104.129.0.0,East Point,Georgia,US,33.67955,-84.43937,30344,America/New_York
109.105.98.188,109.105.98.188,109.105.0.0,London,England,GB,51.50853,-0.12574,EC1A,Europe/London
108.31.161.0,108.31.161.255,108.31.0.0,Arlington,Virginia,US,38.8738,-77.1142,22203,America/New_York
1.46.196.224,1.46.196.231,1.46.0.0,Bangkok,Bangkok,TH,13.75398,100.50144,10200,Asia/Bangkok
102.107.107.170,102.107.107.171,102.107.0.0,Sfax,Şafāqis,TN,34.74056,10.76028,,Africa/Tunis
107.5.108.8,107.5.108.11,107.5.0.0,Schoolcraft,Michigan,US,42.11421,-85.63778,49087,America/Detroit
106.67.21.106,106.67.21.106,106.67.0.0,Nagpur,Maharashtra,IN,21.14631,79.08491,440003,Asia/Kolkata
101.137.74.218,101.137.74.220,101.137.0.0,Taichung,Taiwan,TW,24.1469,120.6839,,Asia/Taipei
102.107.94.154,102.107.94.154,102.107.0.0,Sfax,Şafāqis,TN,34.74056,10.76028,,Africa/Tunis
106.68.116.204,106.68.116.204,106.68.0.0,Busselton,Western Australia,AU,-33.65249,115.3455,6280,Australia/Perth
106.67.20.243,106.67.20.249,106.67.0.0,Delhi,Delhi,IN,28.65195,77.23149,110001,Asia/Kolkata
105.196.134.0,105.196.135.255,105.196.0.0,Giza,Giza,EG,30.00944,31.20861,,Africa/Cairo
104.246.56.160,104.246.56.163,104.246.0.0,Andover,New Jersey,US,40.98593,-74.74211,07821,America/New_York
109.148.7.52,109.148.7.63,109.148.0.0,Hayes,England,GB,51.51579,-0.4234,UB3,Europe/London
104.56.82.0,104.56.82.191,104.56.0.0,Houston,Texas,US,29.8235,-95.1848,77049,America/Chicago
108.32.23.75,108.32.23.85,108.32.0.0,Blairsville,Pennsylvania,US,40.43118,-79.26087,15717,America/New_York
103.163.239.149,103.163.239.149,103.163.0.0,Islamabad,Islamabad,PK,33.72148,73.04329,44000,Asia/Karachi
107.122.229.84,107.122.229.85,107.122.0.0,Tulsa,Oklahoma,US,36.15398,-95.99277,74102,America/Chicago
105.202.14.248,105.202.14.248,105.202.0.0,Cairo,Cairo,EG,30.06263,31.24967,,Africa/Cairo
101.138.141.43,101.138.141.45,101.138.0.0,Taichung,Taiwan,TW,24.1469,120.6839,,Asia/Taipei
101.1.130.248,101.1.130.251,101.1.0.0,Matsuyama,Ehime,JP,33.8636,132.7127,791-8061,Asia/Tokyo
100.47.11.252,100.47.11.255,100.47.0.0,Wetherington,Ohio,US,39.36367,-84.37744,45069,America/New_York
101.191.180.64,101.191.180.65,101.191.0.0,Wauchope,New South Wales,AU,-31.45792,152.72617,2446,Australia/Sydney
106.66.106.120,106.66.106.121,106.66.0.0,Pune,Maharashtra,IN,18.51957,73.85535,411001,Asia/Kolkata
101.174.12.232,101.174.12.247,101.174.0.0,Adelaide,South Australia,AU,-34.92866,138.59863,5000,Australia/Adelaide
103.152.86.126,103.152.86.127,103.152.0.0,Mabalacat City,Central Luzon,PH,15.22303,120.57117,2010,Asia/Manila
101.180.21.108,101.180.21.111,101.180.0.0,Dubbo,New South Wales,AU,-32.24295,148.60484,2830,Australia/Sydney
108.196.133.15,108.196.133.15,108.196.0.0,Montague,California,US,41.7282,-122.5278,96064,America/Los_Angeles
106.180.51.186,106.180.51.186,106.180.0.0,Osaka,Ōsaka,JP,34.69374,135.50218,543-0062,Asia/Tokyo
107.3.11.238,107.3.11.238,107.3.0.0,Newmarket,New Hampshire,US,43.08286,-70.93506,03857,America/New_York
104.169.66.158,104.169.66.175,104.169.0.0,Amanda,Ohio,US,39.64951,-82.74434,43102,America/New_York
1.52.112.0,1.52.112.249,1.52.0.0,Ho Chi Minh City,Ho Chi Minh,VN,10.82302,106.62965,71606,Asia/Ho_Chi_Minh
103.120.203.180,103.120.203.180,103.120.0.0,Magura,Khulna,BD,23.48702,89.41592,7631,Asia/Dhaka
102.169.93.32,102.169.93.32,102.169.0.0,Sfax,Şafāqis,TN,34.74056,10.76028,,Africa/Tunis
107.202.90.0,107.202.95.255,107.202.0.0,Redmond,Washington,US,47.67399,-122.12151,98052,America/Los_Angeles
101.181.182.216,101.181.182.219,101.181.0.0,Mildura,Victoria,AU,-34.18551,142.16251,3502,Australia/Melbourne
109.145.226.61,109.145.226.61,109.145.0.0,Tower Hamlets,England,GB,51.5082,-0.0643,E98,Europe/London
103.49.107.0,103.49.107.255,103.49.0.0,Sydney,New South Wales,AU,-33.86785,151.20732,1001,Australia/Sydney
108.226.100.128,108.226.100.211,108.226.0.0,Salinas,California,US,36.6811,-121.6176,93905,America/Los_Angeles
104.62.2.125,104.62.2.131,104.62.0.0,Dayton,Ohio,US,39.7899,-84.2135,45405,America/New_York
102.110.210.209,102.110.210.209,102.110.0.0,Sfax,Şafāqis,TN,34.74056,10.76028,,Africa/Tunis
106.203.219.126,106.203.219.127,106.203.0.0,Bengaluru,Karnataka,IN,12.97194,77.59369,560002,Asia/Kolkata
109.129.206.224,109.129.206.255,109.129.0.0,Liège,Wallonia,BE,50.63373,5.56749,4000,Europe/Brussels
109.131.33.204,109.131.33.207,109.131.0.0,Watermael-Boitsfort,Brussels Capital,BE,50.80154,4.41436,1170,Europe/Brussels
107.3.32.209,107.3.32.209,107.3.0.0,Bridgeport,Connecticut,US,41.1668,-73.2163,06605,America/New_York
109.126.144.219,109.126.144.219,109.126.0.0,Lida,Grodnenskaya,BY,53.88333,25.29972,231300,Europe/Minsk
101.184.62.148,101.184.62.149,101.184.0.0,Sydney,New South Wales,AU,-33.9795,151.0839,2223,Australia/Sydney
109.149.230.86,109.149.230.127,109.149.0.0,Canterbury,England,GB,51.27904,1.07992,CT1,Europe/London
108.232.72.0,108.232.72.127,108.232.0.0,Nashville,Tennessee,US,36.16589,-86.78444,37201,America/Chicago
1.42.247.4,1.42.247.7,1.42.0.0,Toormina,New South Wales,AU,-30.35384,153.08843,2452,Australia/Sydney
105.89.214.36,105.89.214.39,105.89.0.0,Cairo,Cairo,EG,30.06263,31.24967,,Africa/Cairo
108.39.117.118,108.39.117.118,108.39.0.0,Lexington,Virginia,US,37.78402,-79.44282,24450,America/New_York
1.10.230.90,1.10.230.90,1.10.0.0,Nakhon Pathom,Nakhon Pathom,TH,13.8196,100.04427,73000,Asia/Bangkok
103.90.17.68,103.90.17.68,103.90.0.0,Osaka,Ōsaka,JP,34.69374,135.50218,543-0062,Asia/Tokyo
108.87.146.160,108.87.146.167,108.87.0.0,D'Iberville,Mississippi,US,30.42631,-88.89086,39540,America/Chicago
107.136.43.52,107.136.43.52,107.136.0.0,Snyder,Texas,US,32.71789,-100.91762,79550,America/Chicago
102.25.92.128,102.25.92.255,102.25.0.0,Ksour Essaf,Al Mahdīyah,TN,35.41808,10.99475,,Africa/Tunis
105.202.9.40,105.202.9.40,105.202.0.0,Cairo,Cairo,EG,30.06263,31.24967,,Africa/Cairo
106.208.235.69,106.208.235.69,106.208.0.0,Sambalpur,Odisha,IN,21.17232,84.38971,768106,Asia/Kolkata
1.0.111.206,1.0.111.207,1.0.0.0,Izumo,Shimane,JP,35.36667,132.76667,693-0001,Asia/Tokyo
102.110.178.29,102.110.178.37,102.110.0.0,Sousse,Sūsah,TN,35.82539,10.63699,,Africa/Tunis
1.145.69.216,1.145.69.223,1.145.0.0,Sydney,New South Wales,AU,-33.89665,151.1012,2133,Australia/Sydney
102.107.84.197,102.107.84.197,102.107.0.0,Monastir,Al Munastīr,TN,35.77799,10.82617,,Africa/Tunis
106.131.11.184,106.131.11.187,106.131.0.0,Nagoya,Aichi,JP,35.1771,137.0045,465-0027,Asia/Tokyo
101.138.34.248,101.138.34.249,101.138.0.0,Bade,Taiwan,TW,24.92981,121.28372,,Asia/Taipei
104.218.71.0,104.218.71.255,104.218.0.0,Lincoln,Nebraska,US,40.7568,-96.6523,68516,America/Chicago
101.167.105.0,101.167.105.63,101.167.0.0,White Rock,Queensland,AU,-16.97438,145.7633,4868,Australia/Brisbane
102.170.41.145,102.170.41.147,102.170.0.0,Sousse,Sūsah,TN,35.82539,10.63699,,Africa/Tunis
106.128.60.94,106.128.60.94,106.128.0.0,Nara-shi,Nara,JP,34.68505,135.80485,630-8011,Asia/Tokyo
101.137.133.124,101.137.133.129,101.137.0.0,Banqiao,Taipei,TW,25.01427,121.46719,,Asia/Taipei
1.109.58.120,1.109.58.121,1.109.0.0,Jeju City,Jeju-do,KR,33.50972,126.52194,63152,Asia/Seoul
109.116.212.100,109.116.212.111,109.116.0.0,Noicattaro,Apulia,IT,41.03449,16.98963,70016,Europe/Rome
101.166.7.71,101.166.7.71,101.166.0.0,Bardia,New South Wales,AU,-34,150.8667,1890,Australia/Sydney
102.109.118.104,102.109.118.110,102.109.0.0,Sousse,Sūsah,TN,35.82539,10.63699,,Africa/Tunis
109.142.30.0,109.142.64.31,109.142.0.0,Brussels,Brussels Capital,BE,50.85045,4.34878,1000,Europe/Brussels
1.46.90.172,1.46.90.175,1.46.0.0,Chai Badan,Lopburi,TH,15.2,101.13333,15130,Asia/Bangkok
104.28.157.164,104.28.157.164,104.28.0.0,Miami,Florida,US,25.77427,-80.19366,33101,America/New_York
102.172.89.68,102.172.89.68,102.172.0.0,Sousse,Sūsah,TN,35.82539,10.63699,,Africa/Tunis
109.149.117.104,109.149.117.106,109.149.0.0,Colwyn Bay,Wales,GB,53.29483,-3.72674,LL29,Europe/London
1.156.1.2,1.156.1.2,1.156.0.0,Beresfield,New South Wales,AU,-32.8,151.65,2322,Australia/Sydney
106.211.41.40,106.211.41.43,106.211.0.0,Bareilly,Uttar Pradesh,IN,28.3173,79.4194,243403,Asia/Kolkata
101.165.33.224,101.165.33.255,101.165.0.0,Brisbane,Queensland,AU,-27.45617,153.05917,4171,Australia/Brisbane
1.20.34.96,1.20.34.127,1.20.0.0,Bang Na,Bangkok,TH,13.66744,100.64206,10260,Asia/Bangkok
109.129.50.2,109.129.50.7,109.129.0.0,Antwerpen,Flanders,BE,51.22047,4.40026,2000,Europe/Brussels
108.85.249.164,108.85.249.167,108.85.0.0,East Sonora,California,US,37.9777,-120.3613,95370,America/Los_Angeles
102.221.200.0,102.221.200.255,102.221.0.0,Diepsloot,Gauteng,ZA,-25.9833,28.1167,1684,Africa/Johannesburg
102.168.134.19,102.168.134.23,102.168.0.0,Sousse,Sūsah,TN,35.82539,10.63699,,Africa/Tunis
106.151.34.0,106.151.34.127,106.151.0.0,Gotenba,Shizuoka,JP,35.3311,138.8522,412-0006,Asia/Tokyo
101.175.205.111,101.175.205.111,101.175.0.0,Sydney,New South Wales,AU,-33.6725,150.97703,2156,Australia/Sydney
106.12.126.110,106.12.126.111,106.12.0.0,Shenzhen,Guangdong,CN,22.54554,114.0683,,Asia/Shanghai
1.200.143.206,1.200.143.207,1.200.0.0,Pingtung,Taiwan,TW,22.67135,120.48814,,Asia/Taipei
102.185.246.78,102.185.246.83,102.185.0.0,Alexandria,Alexandria,EG,31.20176,29.91582,,Africa/Cairo
103.9.50.0,103.9.50.255,103.9.0.0,Honiara,Honiara,SB,-9.43333,159.95,,Pacific/Guadalcanal
107.89.140.64,107.89.140.95,107.89.0.0,Redmond,Washington,US,47.67399,-122.12151,98052,America/Los_Angeles
103.154.114.48,103.154.114.55,103.154.0.0,Medan,North Sumatra,ID,3.58333,98.66667,,Asia/Jakarta
102.107.176.128,102.107.176.161,102.107.0.0,Tunis,Tūnis,TN,36.81897,10.16579,,Africa/Tunis
103.186.18.0,103.186.19.255,103.186.0.0,Pune,Maharashtra,IN,18.5131,73.7825,411021,Asia/Kolkata
107.143.229.46,107.143.229.46,107.143.0.0,Wichita Falls,Texas,US,33.91371,-98.49339,76307,America/Chicago
107.116.20.223,107.116.20.247,107.116.0.0,New York City,New York,US,40.71427,-74.00597,10004,America/New_York
109.149.77.0,109.149.77.0,109.149.0.0,Market Drayton,England,GB,52.90538,-2.49012,TF9,Europe/London
108.176.240.0,108.176.247.127,108.176.0.0,Englewood,Colorado,US,39.6123,-104.8799,80111,America/Denver
108.207.27.18,108.207.27.191,108.207.0.0,Columbia,South Carolina,US,34.00071,-81.03481,29201,America/New_York
107.195.174.0,107.195.174.15,107.195.0.0,Appleton,Wisconsin,US,44.3456,-88.4343,54913,America/Chicago
102.169.96.43,102.169.96.43,102.169.0.0,Sousse,Sūsah,TN,35.82539,10.63699,,Africa/Tunis
101.138.82.190,101.138.82.191,101.138.0.0,Taipei,Taiwan,TW,25.04776,121.53185,,Asia/Taipei
102.170.195.63,102.170.195.70,102.170.0.0,Sousse,Sūsah,TN,35.82539,10.63699,,Africa/Tunis
106.247.165.213,106.247.165.223,106.247.0.0,Seoul,Seoul,KR,37.566,126.9784,03141,Asia/Seoul
103.19.232.120,103.19.232.127,103.19.0.0,Shijiazhuang,Hebei,CN,38.04139,114.47861,,Asia/Shanghai
106.210.140.128,106.210.140.159,106.210.0.0,Tāsgaon,Maharashtra,IN,18.13646,74.6759,416314,Asia/Kolkata
105.109.120.16,105.109.120.19,105.109.0.0,Sétif,Sétif,DZ,36.19112,5.41373,19034,Africa/Algiers
105.132.185.128,105.132.185.255,105.132.0.0,El Jadid,Casablanca-Settat,MA,33.25682,-8.50882,24004,Africa/Casablanca
109.115.26.91,109.115.26.91,109.115.0.0,Turin,Piedmont,IT,45.07049,7.68682,10100,Europe/Rome
109.148.175.216,109.148.175.224,109.148.0.0,Luton,England,GB,51.35207,0.5337,ME5,Europe/London
103.47.16.0,103.47.16.255,103.47.0.0,Ghāziābād,Uttar Pradesh,IN,28.6667,77.4333,201012,Asia/Kolkata
101.138.171.4,101.138.171.21,101.138.0.0,Banqiao,Taipei,TW,25.01427,121.46719,,Asia/Taipei
1.144.26.208,1.144.26.255,1.144.0.0,Sydney,New South Wales,AU,-33.86785,151.20732,1001,Australia/Sydney
104.157.231.80,104.157.231.87,104.157.0.0,Oshawa,Ontario,CA,43.8197,-79.0803,L1W,America/Toronto
106.244.127.64,106.244.127.255,106.244.0.0,Seoul,Seoul,KR,37.5765,126.9993,03081,Asia/Seoul
108.231.43.0,108.231.43.81,108.231.0.0,Chattanooga,Tennessee,US,35.0942,-85.1757,37416,America/New_York
102.53.97.2,102.53.97.3,102.53.0.0,Meknès,Fès-Meknès,MA,33.89352,-5.54727,50102,Africa/Casablanca
102.173.132.0,102.173.133.255,102.173.0.0,Tunis,Tūnis,TN,36.81897,10.16579,,Africa/Tunis
101.139.94.53,101.139.94.53,101.139.0.0,Banqiao,Taipei,TW,25.01427,121.46719,,Asia/Taipei
1.210.233.240,1.210.235.103,1.210.0.0,Seoul,Seoul,KR,37.566,126.9784,03141,Asia/Seoul
108.219.5.40,108.219.5.43,108.219.0.0,New Llano,Louisiana,US,31.0466,-93.2054,71459,America/Chicago
108.44.179.106,108.44.179.255,108.44.0.0,Warrenton,Virginia,US,38.71345,-77.79527,20186,America/New_York
101.178.193.136,101.178.193.143,101.178.0.0,Launceston,Tasmania,AU,-41.43876,147.13467,7250,Australia/Hobart
101.112.113.204,101.112.113.204,101.112.0.0,Perth,Western Australia,AU,-31.8347,115.8513,6064,Australia/Perth
105.202.186.142,105.202.186.148,105.202.0.0,Cairo,Cairo,EG,30.06263,31.24967,,Africa/Cairo
105.244.237.212,105.244.237.215,105.244.0.0,Bloemfontein,Orange Free State,ZA,-29.12107,26.214,9300,Africa/Johannesburg
106.222.13.24,106.222.13.31,106.222.0.0,Vapi,Gujarat,IN,20.37175,72.90493,396191,Asia/Kolkata
105.244.42.148,105.244.42.148,105.244.0.0,eSikhaleni,KwaZulu-Natal,ZA,-28.87097,31.89961,3887,Africa/Johannesburg
109.1.112.32,109.1.112.63,109.1.0.0,Auch,Occitanie,FR,43.64561,0.58856,32000,Europe/Paris
101.35.2.248,101.35.2.251,101.35.0.0,Shanghai,Shanghai,CN,31.22222,121.45806,,Asia/Shanghai
104.168.30.48,104.168.30.63,104.168.0.0,North Adams,Massachusetts,US,42.70092,-73.10871,01247,America/New_York
108.69.108.178,108.69.108.183,108.69.0.0,York,Alabama,US,32.48625,-88.29642,36925,America/Chicago
1.157.224.64,1.157.224.67,1.157.0.0,Teralba,New South Wales,AU,-32.96667,151.6,2284,Australia/Sydney
101.161.135.20,101.161.135.23,101.161.0.0,Ballina,New South Wales,AU,-28.86414,153.56541,2478,Australia/Sydney
109.148.195.132,109.148.195.135,109.148.0.0,Fivehead,England,GB,51.00212,-2.92145,TA3,Europe/London
106.68.123.87,106.68.123.94,106.68.0.0,Perth,Western Australia,AU,-31.91435,115.88785,6052,Australia/Perth
100.148.0.0,100.148.255.255,100.148.0.0,Bellevue,Washington,US,47.5614,-122.1552,98006,America/Los_Angeles
101.173.209.216,101.173.209.218,101.173.0.0,Sydney,New South Wales,AU,-33.74872,151.28088,2099,Australia/Sydney
1.250.81.0,1.250.81.255,1.250.0.0,Jeonju,Jeollabuk-do,KR,35.816,127.0973,54965,Asia/Seoul
108.44.67.96,108.44.67.103,108.44.0.0,Riverview,Virginia,US,36.93538,-82.48182,24230,America/New_York
106.129.3.15,106.129.3.15,106.129.0.0,Yokohama,Kanagawa,JP,35.43333,139.65,220-8588,Asia/Tokyo
103.124.45.0,103.124.45.127,103.124.0.0,Batam,Riau,ID,1.14937,104.02491,,Asia/Jakarta
104.55.141.72,104.55.141.87,104.55.0.0,Bloomington,Indiana,US,39.1263,-86.5769,47403,America/Indiana/Indianapolis
108.17.163.1,108.17.163.254,108.17.0.0,Seattle,Washington,US,47.60621,-122.33207,98101,America/Los_Angeles
104.188.150.152,104.188.150.159,104.188.0.0,Bowling Green,Ohio,US,41.37477,-83.65132,43402,America/New_York
108.197.197.184,108.197.197.215,108.197.0.0,Tulsa,Oklahoma,US,36.15398,-95.99277,74102,America/Chicago
102.106.87.198,102.106.87.198,102.106.0.0,Sfax,Şafāqis,TN,34.74056,10.76028,,Africa/Tunis
103.17.175.148,103.17.175.151,103.17.0.0,Padang,West Sumatra,ID,-0.94924,100.35427,,Asia/Jakarta
103.234.213.24,103.234.213.79,103.234.0.0,Pune,Maharashtra,IN,18.51957,73.85535,411001,Asia/Kolkata
1.42.136.120,1.42.136.121,1.42.0.0,Sydney,New South Wales,AU,-33.86785,151.20732,1001,Australia/Sydney
107.205.64.52,107.205.64.55,107.205.0.0,Eldon,Missouri,US,38.34836,-92.58158,65026,America/Chicago
103.177.224.192,103.177.224.255,103.177.0.0,Cochin,Kerala,IN,9.93988,76.26022,682507,Asia/Kolkata
105.197.125.118,105.197.125.119,105.197.0.0,Ţanţā,Gharbia,EG,30.78847,31.00192,,Africa/Cairo
101.137.40.202,101.137.40.203,101.137.0.0,Yuanlin,Taiwan,TW,23.95671,120.57608,,Asia/Taipei
101.136.8.246,101.136.8.246,101.136.0.0,Chang-hua,Taiwan,TW,24.07327,120.56276,,Asia/Taipei
105.93.143.102,105.93.143.102,105.93.0.0,Banī Suwayf,Beni Suweif,EG,29.07441,31.09785,,Africa/Cairo
101.58.95.120,101.58.95.121,101.58.0.0,Bari,Apulia,IT,41.12066,16.86982,70100,Europe/Rome
101.179.209.64,101.179.209.65,101.179.0.0,Newcastle,New South Wales,AU,-32.93424,151.64584,2285,Australia/Sydney
105.68.231.110,105.68.231.110,105.68.0.0,Casablanca,Casablanca-Settat,MA,33.58831,-7.61138,29640,Africa/Casablanca
101.191.246.214,101.191.246.223,101.191.0.0,Sydney,New South Wales,AU,-33.86785,151.20732,1001,Australia/Sydney
101.177.20.110,101.177.20.111,101.177.0.0,Townsville,Queensland,AU,-19.26639,146.80569,4810,Australia/Brisbane
101.51.120.110,101.51.120.111,101.51.0.0,Ubon Ratchathani,Ubon Ratchathani,TH,15.23844,104.84866,33130,Asia/Bangkok
106.208.68.76,106.208.68.79,106.208.0.0,Karīmnagar,Telangana,IN,18.42187,79.16478,505469,Asia/Kolkata
104.50.44.65,104.50.44.67,104.50.0.0,Manhattan,Kansas,US,39.18361,-96.57167,66502,America/Chicago
107.144.119.160,107.144.119.167,107.144.0.0,Gulfport,Florida,US,27.7465,-82.6897,33711,America/New_York
1.20.147.64,1.20.147.71,1.20.0.0,Khuan Khanun,Phatthalung,TH,7.7347,100.00931,93110,Asia/Bangkok
109.143.173.28,109.143.173.31,109.143.0.0,Ostend,Flanders,BE,51.21551,2.927,8400,Europe/Brussels
102.106.91.46,102.106.91.46,102.106.0.0,Sfax,Şafāqis,TN,34.74056,10.76028,,Africa/Tunis
101.137.84.170,101.137.84.171,101.137.0.0,Wufeng,Taiwan,TW,24.0637,120.698,,Asia/Taipei
102.106.23.213,102.106.23.221,102.106.0.0,Sousse,Sūsah,TN,35.82539,10.63699,,Africa/Tunis
106.154.43.160,106.154.43.175,106.154.0.0,Kobe,Hyōgo,JP,34.6948,135.2042,651-0081,Asia/Tokyo
102.168.224.207,102.168.224.207,102.168.0.0,Sfax,Şafāqis,TN,34.74056,10.76028,,Africa/Tunis
105.202.0.66,105.202.0.66,105.202.0.0,Banī Suwayf,Beni Suweif,EG,29.07441,31.09785,,Africa/Cairo
106.181.66.88,106.181.66.89,106.181.0.0,Hiroshima,Hiroshima,JP,34.4,132.45,730-0011,Asia/Tokyo
104.176.100.120,104.176.100.123,104.176.0.0,Demopolis,Alabama,US,32.51764,-87.8364,36732,America/Chicago
108.170.227.238,108.170.227.238,108.170.0.0,Mountain View,California,US,37.4056,-122.0775,94043,America/Los_Angeles
101.167.104.49,101.167.104.49,101.167.0.0,Sunshine Coast,Queensland,AU,-26.65682,153.07955,4558,Australia/Brisbane
102.170.95.1,102.170.95.4,102.170.0.0,Sousse,Sūsah,TN,35.82539,10.63699,,Africa/Tunis
102.53.12.85,102.53.12.85,102.53.0.0,Marrakesh,Marrakesh-Safi,MA,31.63416,-7.99994,40152,Africa/Casablanca
109.14.0.144,109.14.0.159,109.14.0.0,Bouillé-Loretz,Nouvelle-Aquitaine,FR,47.07911,-0.27178,79290,Europe/Paris
1.53.156.31,1.53.156.31,1.53.0.0,Đắk Hà,Kon Tum,VN,14.51345,107.92102,60606,Asia/Ho_Chi_Minh
103.118.253.57,103.118.253.255,103.118.0.0,Shenzhen,Guangdong,CN,22.54554,114.0683,,Asia/Shanghai
107.135.12.0,107.135.12.255,107.135.0.0,St. Louis,Missouri,US,38.62727,-90.19789,63101,America/Chicago
109.113.161.56,109.113.161.63,109.113.0.0,Oristano,Sardinia,IT,39.9036,8.59257,09170,Europe/Rome
101.109.81.208,101.109.81.225,101.109.0.0,Phra Nakhon Si Ayutthaya,Phra Nakhon Si Ayutthaya,TH,14.35167,100.57739,13000,Asia/Bangkok
109.128.106.0,109.128.106.231,109.128.0.0,Antwerpen,Flanders,BE,51.3006,4.38343,2040,Europe/Brussels
109.119.205.196,109.119.205.209,109.119.0.0,Venice,Veneto,IT,45.43713,12.33265,30100,Europe/Rome
1.20.223.0,1.20.223.255,1.20.0.0,Bangkok,Bangkok,TH,13.75398,100.50144,10200,Asia/Bangkok
109.102.102.224,109.102.102.225,109.102.0.0,Bucharest,București,RO,44.4914,26.0602,010061,Europe/Bucharest
108.39.156.0,108.39.156.255,108.39.0.0,Pittsburgh,Pennsylvania,US,40.4346,-79.8655,15221,America/New_York
105.202.182.13,105.202.182.13,105.202.0.0,Cairo,Cairo,EG,30.06263,31.24967,,Africa/Cairo
1.33.81.148,1.33.81.151,1.33.0.0,Osaka,Ōsaka,JP,34.69374,135.50218,543-0062,Asia/Tokyo
1.38.16.0,1.38.24.255,1.38.0.0,Powai,Maharashtra,IN,19.1624,72.8694,400101,Asia/Kolkata
103.186.213.0,103.186.213.255,103.186.0.0,Banten,Banten,ID,-6.0307,106.164,,Asia/Jakarta
105.109.117.150,105.109.117.151,105.109.0.0,Constantine,Constantine,DZ,36.365,6.61472,04011,Africa/Algiers
107.174.32.116,107.174.32.119,107.174.0.0,Rochester,New York,US,43.15478,-77.61556,14604,America/New_York
102.164.205.96,102.164.205.127,102.164.0.0,Newcastle,KwaZulu-Natal,ZA,-27.75796,29.9318,2940,Africa/Johannesburg
103.130.140.136,103.130.140.136,103.130.0.0,Chantrea,Svay Rieng,KH,10.98431,106.12486,,Asia/Phnom_Penh
101.35.135.160,101.35.135.191,101.35.0.0,Shenzhen,Guangdong,CN,22.54554,114.0683,,Asia/Shanghai
1.158.11.112,1.158.11.161,1.158.0.0,Sydney,New South Wales,AU,-33.9588,150.8542,2174,Australia/Sydney
104.235.116.165,104.235.116.167,104.235.0.0,Freeport,Illinois,US,42.29669,-89.62123,61032,America/Chicago
108.247.40.240,108.247.40.255,108.247.0.0,Carrollton,Missouri,US,39.35835,-93.49577,64633,America/Chicago
108.56.169.0,108.56.169.255,108.56.0.0,Gaithersburg,Maryland,US,39.173,-77.1855,20879,America/New_York
102.135.205.0,102.135.205.42,102.135.0.0,Osogbo,Osun,NG,7.77104,4.55698,,Africa/Lagos
104.169.133.144,104.169.133.149,104.169.0.0,West Alexandria,Ohio,US,39.7445,-84.53217,45381,America/New_York
102.106.53.0,102.106.53.2,102.106.0.0,Tunis,Tūnis,TN,36.81897,10.16579,,Africa/Tunis
103.186.100.72,103.186.100.75,103.186.0.0,Ho Chi Minh City,Ho Chi Minh,VN,10.82302,106.62965,71606,Asia/Ho_Chi_Minh
109.103.62.232,109.103.63.31,109.103.0.0,Bucharest,București,RO,44.4914,26.0602,010061,Europe/Bucharest
1.9.133.0,1.9.133.127,1.9.0.0,Kuala Lumpur,Kuala Lumpur,MY,2.8393,101.7949,71807,Asia/Kuala_Lumpur
108.17.96.4,108.17.96.55,108.17.0.0,Pittsburgh,Pennsylvania,US,40.44062,-79.99589,15212,America/New_York
102.109.68.35,102.109.68.35,102.109.0.0,Tunis,Tūnis,TN,36.81897,10.16579,,Africa/Tunis
104.153.208.0,104.153.211.255,104.153.0.0,Seattle,Washington,US,47.60621,-122.33207,98101,America/Los_Angeles
108.92.139.0,108.92.139.127,108.92.0.0,Chicago,Illinois,US,41.85003,-87.65005,60666,America/Chicago
109.114.40.104,109.114.40.107,109.114.0.0,Bisceglie,Apulia,IT,41.24264,16.50104,76011,Europe/Rome
106.159.25.0,106.159.25.159,106.159.0.0,Ōta,Gunma,JP,36.3079,139.3435,373-0032,Asia/Tokyo
101.141.158.16,101.141.158.63,101.141.0.0,Toyooka,Hyōgo,JP,35.5431,134.8221,668-0033,Asia/Tokyo
105.69.185.221,105.69.185.228,105.69.0.0,Casablanca,Casablanca-Settat,MA,33.58831,-7.61138,29640,Africa/Casablanca
109.15.30.192,109.15.30.235,109.15.0.0,Lille,Hauts-de-France,FR,50.63297,3.05858,59000,Europe/Paris
1.41.98.217,1.41.99.255,1.41.0.0,Sydney,New South Wales,AU,-33.9425,150.9377,1875,Australia/Sydney
101.119.107.6,101.119.107.6,101.119.0.0,Sydney,New South Wales,AU,-33.86785,151.20732,1001,Australia/Sydney
102.168.67.33,102.168.67.33,102.168.0.0,Tunis,Tūnis,TN,36.81897,10.16579,,Africa/Tunis
1.55.40.184,1.55.40.191,1.55.0.0,Huế,Thừa Thiên-Huế,VN,16.4619,107.59546,49198,Asia/Bangkok
1.46.214.240,1.46.214.247,1.46.0.0,Rayong,Rayong,TH,12.68095,101.25798,21000,Asia/Bangkok
107.7.64.224,107.7.64.231,107.7.0.0,Little Rock,Arkansas,US,34.7871,-92.4222,72212,America/Chicago
103.140.147.210,103.140.147.210,103.140.0.0,Shenzhen,Guangdong,CN,22.54554,114.0683,,Asia/Shanghai
103.146.122.0,103.146.123.255,103.146.0.0,Hanoi,Hanoi,VN,21.0245,105.84117,10000,Asia/Bangkok
104.56.235.144,104.56.235.147,104.56.0.0,Rock Island,Illinois,US,41.50948,-90.57875,61201,America/Chicago
1.224.252.0,1.224.252.255,1.224.0.0,Daegu,Daegu,KR,35.8196,128.6307,42220,Asia/Seoul
106.154.153.159,106.154.153.191,106.154.0.0,Sapporo,Hokkaido,JP,43.06667,141.35,065-0010,Asia/Tokyo
108.245.165.46,108.245.165.47,108.245.0.0,Ada,Oklahoma,US,34.78,-96.6924,74820,America/Chicago
109.107.215.8,109.107.215.15,109.107.0.0,Nezdenice,Zlín,CZ,49.01668,17.7522,687 32,Europe/Prague
106.171.4.224,106.171.4.255,106.171.0.0,Kurashiki,Okayama,JP,34.5528,133.6848,713-8102,Asia/Tokyo
101.112.39.200,101.112.39.215,101.112.0.0,Perth,Western Australia,AU,-31.91125,115.77295,6019,Australia/Perth
102.168.246.147,102.168.246.149,102.168.0.0,Sfax,Şafāqis,TN,34.74056,10.76028,,Africa/Tunis
1.209.128.92,1.209.128.92,1.209.0.0,Seoul,Seoul,KR,37.566,126.9784,03141,Asia/Seoul
102.169.168.150,102.169.168.150,102.169.0.0,Sousse,Sūsah,TN,35.82539,10.63699,,Africa/Tunis
105.82.66.136,105.82.66.136,105.82.0.0,Banī Suwayf,Beni Suweif,EG,29.07441,31.09785,,Africa/Cairo
102.106.128.142,102.106.128.142,102.106.0.0,Monastir,Al Munastīr,TN,35.77799,10.82617,,Africa/Tunis
104.44.199.27,104.44.199.27,104.44.0.0,Chicago,Illinois,US,41.85003,-87.65005,60666,America/Chicago
106.211.173.152,106.211.173.191,106.211.0.0,Bengaluru,Karnataka,IN,12.97194,77.59369,560002,Asia/Kolkata
108.243.42.0,108.243.42.255,108.243.0.0,Chicago,Illinois,US,41.9019,-87.6779,60622,America/Chicago
101.187.248.0,101.187.248.255,101.187.0.0,Sydney,New South Wales,AU,-33.9425,150.9377,1875,Australia/Sydney
102.109.209.190,102.109.209.193,102.109.0.0,Sousse,Sūsah,TN,35.82539,10.63699,,Africa/Tunis
108.170.243.73,108.170.243.73,108.170.0.0,Mountain View,California,US,37.4056,-122.0775,94043,America/Los_Angeles
103.147.46.0,103.147.46.255,103.147.0.0,Jakarta,Jakarta,ID,-6.21462,106.84513,,Asia/Jakarta
101.115.175.96,101.115.175.191,101.115.0.0,Gold Coast,Queensland,AU,-27.9565,153.4007,4215,Australia/Brisbane
106.211.84.189,106.211.84.191,106.211.0.0,Ludhiāna,Punjab,IN,30.91204,75.85379,141120,Asia/Kolkata
106.133.221.234,106.133.221.238,106.133.0.0,Osaka,Ōsaka,JP,34.69374,135.50218,543-0062,Asia/Tokyo
101.136.106.92,101.136.106.93,101.136.0.0,Taipei,Taiwan,TW,25.04776,121.53185,,Asia/Taipei
102.106.152.57,102.106.152.63,102.106.0.0,Sfax,Şafāqis,TN,34.74056,10.76028,,Africa/Tunis
109.142.83.167,109.142.83.191,109.142.0.0,Brussels,Brussels Capital,BE,50.85045,4.34878,1000,Europe/Brussels
108.203.80.120,108.203.80.127,108.203.0.0,Saint Joseph,Missouri,US,39.7965,-94.8443,64505,America/Chicago
105.93.142.48,105.93.142.48,105.93.0.0,Cairo,Cairo,EG,30.06263,31.24967,,Africa/Cairo
102.107.0.210,102.107.0.214,102.107.0.0,Sousse,Sūsah,TN,35.82539,10.63699,,Africa/Tunis
104.177.42.228,104.177.42.231,104.177.0.0,Little Rock,Arkansas,US,34.74648,-92.28959,72201,America/Chicago
103.31.233.164,103.31.233.167,103.31.0.0,Ciomas,Banten,ID,-6.2173,106.044,,Asia/Jakarta
106.203.205.0,106.203.205.63,106.203.0.0,Hyderābād,Telangana,IN,17.4498,78.5553,500015,Asia/Kolkata
108.194.252.0,108.194.252.255,108.194.0.0,Petaluma,California,US,38.2403,-122.6777,94952,America/Los_Angeles
1.47.202.82,1.47.202.83,1.47.0.0,Mae Sot,Tak,TH,16.71667,98.56667,63110,Asia/Bangkok
107.3.23.216,107.3.23.223,107.3.0.0,Lancaster,Pennsylvania,US,40.0766,-76.3107,17601,America/New_York
107.144.101.20,107.144.101.23,107.144.0.0,Lutz,Florida,US,28.1474,-82.5152,33558,America/New_York
103.52.255.82,103.52.255.83,103.52.0.0,Barddhamān,West Bengal,IN,23.25572,87.85691,713321,Asia/Kolkata
109.149.89.176,109.149.89.179,109.149.0.0,Fleetwood,England,GB,53.92527,-3.01085,FY7,Europe/London
101.179.236.6,101.179.236.67,101.179.0.0,Sydney,New South Wales,AU,-33.80155,150.79335,2759,Australia/Sydney
109.130.68.154,109.130.68.155,109.130.0.0,Bastogne,Wallonia,BE,50.00347,5.71844,6600,Europe/Brussels
108.215.251.48,108.215.251.55,108.215.0.0,Houston,Texas,US,30.0198,-95.4087,77073,America/Chicago
1.117.158.144,1.117.158.151,1.117.0.0,Shenzhen,Guangdong,CN,22.54554,114.0683,,Asia/Shanghai
109.147.144.88,109.147.144.95,109.147.0.0,Oban,Scotland,GB,56.41535,-5.47184,PA34,Europe/London
102.170.219.69,102.170.219.70,102.170.0.0,Sfax,Şafāqis,TN,34.74056,10.76028,,Africa/Tunis
109.115.47.160,109.115.47.160,109.115.0.0,Suzzara,Lombardy,IT,44.99242,10.74407,46029,Europe/Rome
105.16.8.29,105.16.8.30,105.16.0.0,Cape Town,Western Cape,ZA,-33.92584,18.42322,7945,Africa/Johannesburg
108.178.153.72,108.178.153.87,108.178.0.0,Rancho Mirage,California,US,33.73974,-116.41279,92270,America/Los_Angeles
101.190.44.192,101.190.44.199,101.190.0.0,Newcastle,New South Wales,AU,-32.92953,151.7801,2300,Australia/Sydney
1.33.224.91,1.33.224.91,1.33.0.0,Kyoto,Kyoto,JP,35.02107,135.75385,602-0054,Asia/Tokyo
106.13.201.200,106.13.201.207,106.13.0.0,Beijing,Beijing,CN,39.9075,116.39723,,Asia/Shanghai
102.141.200.0,102.141.203.255,102.141.0.0,Johannesburg,Gauteng,ZA,-26.20227,28.04363,2041,Africa/Johannesburg
101.136.216.0,101.136.216.255,101.136.0.0,Taipei,Taiwan,TW,25.04776,121.53185,,Asia/Taipei
101.175.205.253,101.175.205.255,101.175.0.0,Sydney,New South Wales,AU,-33.9188,151.0888,2192,Australia/Sydney
103.197.140.200,103.197.140.207,103.197.0.0,Kargil,Ladakh,IN,34.55765,76.12622,194103,Asia/Kolkata
105.109.126.46,105.109.126.49,105.109.0.0,Sétif,Sétif,DZ,36.19112,5.41373,19034,Africa/Algiers
101.112.92.128,101.112.92.131,101.112.0.0,Sydney,New South Wales,AU,-33.86785,151.20732,1001,Australia/Sydney
106.66.122.188,106.66.122.189,106.66.0.0,Chennai,Tamil Nadu,IN,13.08784,80.27847,600001,Asia/Kolkata
108.197.99.242,108.197.99.255,108.197.0.0,Little Rock,Arkansas,US,34.7269,-92.344,72204,America/Chicago
109.145.135.128,109.145.135.197,109.145.0.0,Glasgow,Scotland,GB,55.8376,-4.2843,G41,Europe/London
106.66.127.128,106.66.127.129,106.66.0.0,Pune,Maharashtra,IN,18.51957,73.85535,411001,Asia/Kolkata
108.243.236.111,108.243.236.119,108.243.0.0,Wilburton,Oklahoma,US,34.91871,-95.30914,74578,America/Chicago
104.2.203.222,104.2.203.223,104.2.0.0,Rock Island,Illinois,US,41.50948,-90.57875,61201,America/Chicago
108.161.80.16,108.161.80.31,108.161.0.0,Columbia,Missouri,US,38.9348,-92.3639,65203,America/Chicago
101.109.66.59,101.109.66.60,101.109.0.0,Khon Kaen,Khon Kaen,TH,16.44671,102.833,40140,Asia/Bangkok
104.220.189.4,104.220.189.9,104.220.0.0,Woodland,California,US,38.6808,-121.7411,95776,America/Los_Angeles
105.255.227.0,105.255.227.247,105.255.0.0,Johannesburg,Gauteng,ZA,-26.20227,28.04363,2041,Africa/Johannesburg
107.191.184.40,107.191.184.63,107.191.0.0,Huber Heights,Ohio,US,39.84395,-84.12466,45424,America/New_York
102.173.236.231,102.173.236.233,102.173.0.0,Sfax,Şafāqis,TN,34.74056,10.76028,,Africa/Tunis
1.156.66.144,1.156.66.147,1.156.0.0,Grenfell,New South Wales,AU,-33.89549,148.16438,2810,Australia/Sydney
1.239.198.0,1.239.198.255,1.239.0.0,Seoul,Seoul,KR,37.5378,127.0798,05027,Asia/Seoul
106.70.251.128,106.70.251.159,106.70.0.0,Ipswich,Queensland,AU,-27.62343,152.76067,4305,Australia/Brisbane
104.44.30.233,104.44.30.237,104.44.0.0,Santiago,Santiago Metropolitan,CL,-33.45694,-70.64827,8320000,America/Santiago
102.169.217.132,102.169.217.132,102.169.0.0,Sousse,Sūsah,TN,35.82539,10.63699,,Africa/Tunis
108.235.174.160,108.235.174.255,108.235.0.0,Fresno,California,US,36.74,-119.7532,93702,America/Los_Angeles
106.64.177.236,106.64.177.239,106.64.0.0,Kaohsiung,Takao,TW,22.61626,120.31333,,Asia/Taipei
108.18.161.68,108.18.161.68,108.18.0.0,Washington,"Washington, D.C.",US,38.89511,-77.03637,20004,America/New_York
1.40.59.208,1.40.59.223,1.40.0.0,Newcastle,New South Wales,AU,-32.94237,151.57,2278,Australia/Sydney
102.25.45.128,102.25.49.255,102.25.0.0,Tunis,Tūnis,TN,36.81897,10.16579,,Africa/Tunis
1.33.85.0,1.33.85.7,1.33.0.0,Iida,Nagano,JP,35.5167,137.8833,395-1101,Asia/Tokyo
101.136.22.167,101.136.22.167,101.136.0.0,Taichung,Taiwan,TW,24.1469,120.6839,,Asia/Taipei
108.88.249.88,108.88.249.88,108.88.0.0,Louisville,Kentucky,US,38.0891,-85.6548,40229,America/Kentucky/Louisville
104.157.199.116,104.157.199.124,104.157.0.0,Kitchener,Ontario,CA,43.42537,-80.5112,N2E,America/Toronto
104.94.160.0,104.94.175.255,104.94.0.0,Buenos Aires,Buenos Aires F.D.,AR,-34.61315,-58.37723,1871,America/Argentina/Buenos_Aires
109.149.61.189,109.149.61.189,109.149.0.0,Padstow,England,GB,50.53885,-4.93664,PL28,Europe/London
109.146.181.0,109.146.181.29,109.146.0.0,London,England,GB,51.50853,-0.12574,EC1A,Europe/London
101.137.94.155,101.137.94.160,101.137.0.0,Taichung,Taiwan,TW,24.1469,120.6839,,Asia/Taipei
101.108.235.104,101.108.235.111,101.108.0.0,Huai Yot,Trang,TH,7.78937,99.63469,92130,Asia/Bangkok
104.226.14.168,104.226.14.255,104.226.0.0,West Hartford,Connecticut,US,41.76204,-72.74204,06107,America/New_York
1.146.200.144,1.146.200.147,1.146.0.0,Melbourne,Victoria,AU,-37.814,144.96332,3000,Australia/Melbourne
103.216.108.0,103.216.111.255,103.216.0.0,Hangzhou,Zhejiang,CN,30.29365,120.16142,,Asia/Shanghai
1.0.145.3,1.0.145.11,1.0.0.0,Ko Samui,Surat Thani,TH,9.53567,99.93567,84140,Asia/Bangkok
109.145.238.168,109.145.238.183,109.145.0.0,Crediton,England,GB,50.78333,-3.65,EX17,Europe/London
1.43.85.180,1.43.85.207,1.43.0.0,Sydney,New South Wales,AU,-33.86785,151.20732,1001,Australia/Sydney
105.109.15.143,105.109.15.145,105.109.0.0,Sétif,Sétif,DZ,36.19112,5.41373,19034,Africa/Algiers
103.205.28.26,103.205.28.26,103.205.0.0,Devonport,Tasmania,AU,-41.17695,146.35152,7310,Australia/Hobart
101.112.80.64,101.112.80.71,101.112.0.0,Canberra,Australian Capital Territory,AU,-35.28346,149.12807,2600,Australia/Sydney
105.243.123.12,105.243.123.13,105.243.0.0,White River,Mpumalanga,ZA,-25.33177,31.01166,1240,Africa/Johannesburg
102.172.182.244,102.172.182.246,102.172.0.0,Sfax,Şafāqis,TN,34.74056,10.76028,,Africa/Tunis
109.118.32.172,109.118.32.175,109.118.0.0,Catania,Sicily,IT,37.5166,15.0834,95125,Europe/Rome
108.208.238.0,108.208.239.255,108.208.0.0,Seaside,California,US,36.61107,-121.85162,93955,America/Los_Angeles
108.201.221.144,108.201.221.239,108.201.0.0,Sacramento,California,US,38.58157,-121.4944,94203,America/Los_Angeles
108.207.228.98,108.207.228.123,108.207.0.0,Wichita,Kansas,US,37.7048,-97.3638,67203,America/Chicago
104.51.141.249,104.51.141.250,104.51.0.0,Petoskey,Michigan,US,45.37334,-84.95533,49770,America/Detroit
103.93.26.0,103.93.26.255,103.93.0.0,Sydney,New South Wales,AU,-33.83861,151.20333,2060,Australia/Sydney
102.32.205.32,102.32.205.47,102.32.0.0,Boksburg,Gauteng,ZA,-26.2167,28.25,1469,Africa/Johannesburg
101.176.199.208,101.176.199.211,101.176.0.0,Albury,New South Wales,AU,-36.07482,146.92401,2640,Australia/Sydney
104.143.124.0,104.143.124.255,104.143.0.0,Alexandria,Virginia,US,38.80484,-77.04692,22314,America/New_York
104.3.237.0,104.3.237.127,104.3.0.0,Atlanta,Georgia,US,33.749,-84.38798,30302,America/New_York
101.119.87.110,101.119.87.135,101.119.0.0,Melbourne,Victoria,AU,-37.814,144.96332,3000,Australia/Melbourne
105.243.80.0,105.243.83.47,105.243.0.0,Cape Town,Western Cape,ZA,-33.92584,18.42322,7945,Africa/Johannesburg
105.191.71.232,105.191.71.237,105.191.0.0,Casablanca,Casablanca-Settat,MA,33.58831,-7.61138,29640,Africa/Casablanca
102.170.13.154,102.170.13.154,102.170.0.0,Sfax,Şafāqis,TN,34.74056,10.76028,,Africa/Tunis
1.10.171.104,1.10.171.112,1.10.0.0,Ao Luek,Krabi,TH,8.37803,98.72117,81110,Asia/Bangkok
109.117.92.0,109.117.92.7,109.117.0.0,Catania,Sicily,IT,37.51153,15.0633,95123,Europe/Rome
107.26.249.0,107.26.249.127,107.26.0.0,Weirton,West Virginia,US,40.41896,-80.58952,26062,America/New_York
103.173.4.0,103.173.4.255,103.173.0.0,Irosin,Bicol,PH,12.70013,124.03221,4707,Asia/Manila
107.85.182.0,107.85.182.127,107.85.0.0,Nashville,Tennessee,US,36.16589,-86.78444,37201,America/Chicago
104.235.47.12,104.235.47.19,104.235.0.0,Belvidere,Illinois,US,42.26391,-88.84427,61008,America/Chicago
1.254.61.83,1.254.61.83,1.254.0.0,Byeonggok,Gyeongsangnam-do,KR,35.53064,127.68155,50027,Asia/Seoul
107.197.146.48,107.197.146.63,107.197.0.0,Orosi,California,US,36.54495,-119.28734,93647,America/Los_Angeles
103.77.205.0,103.77.205.255,103.77.0.0,Makassar,South Sulawesi,ID,-5.14861,119.43194,,Asia/Makassar
1.157.229.0,1.157.229.22,1.157.0.0,Sydney,New South Wales,AU,-33.89072,151.26472,2026,Australia/Sydney
106.70.30.191,106.70.30.213,106.70.0.0,Brisbane,Queensland,AU,-27.316,153.013,4036,Australia/Brisbane
102.168.174.34,102.168.174.34,102.168.0.0,Sousse,Sūsah,TN,35.82539,10.63699,,Africa/Tunis
101.112.117.184,101.112.117.191,101.112.0.0,Sydney,New South Wales,AU,-33.86785,151.20732,1001,Australia/Sydney
106.181.101.45,106.181.101.46,106.181.0.0,Hiroshima,Hiroshima,JP,34.4,132.45,730-0011,Asia/Tokyo
1.159.158.216,1.159.158.217,1.159.0.0,Perth,Western Australia,AU,-31.9344,115.8716,6929,Australia/Perth
101.109.39.131,101.109.39.131,101.109.0.0,Kabin Buri,Prachin Buri,TH,13.95114,101.71769,25110,Asia/Bangkok
103.116.142.0,103.116.143.255,103.116.0.0,Mumbai,Maharashtra,IN,19.07283,72.88261,400070,Asia/Kolkata
1.46.82.105,1.46.82.105,1.46.0.0,Phanom Sarakham,Chachoengsao,TH,13.74872,101.34888,24120,Asia/Bangkok
102.106.40.14,102.106.40.14,102.106.0.0,Sfax,Şafāqis,TN,34.74056,10.76028,,Africa/Tunis
101.177.8.14,101.177.8.15,101.177.0.0,Townsville,Queensland,AU,-19.28552,146.78998,4812,Australia/Brisbane
105.93.246.32,105.93.246.32,105.93.0.0,Cairo,Cairo,EG,30.06263,31.24967,,Africa/Cairo
109.119.57.16,109.119.57.31,109.119.0.0,Ivrea,Piedmont,IT,45.46723,7.87617,10015,Europe/Rome
104.159.127.237,104.159.127.255,104.159.0.0,Winnipeg,Manitoba,CA,49.8844,-97.14704,R3B,America/Winnipeg
103.235.8.108,103.235.8.111,103.235.0.0,Aurangabad,Maharashtra,IN,19.87757,75.34226,431007,Asia/Kolkata
103.14.80.148,103.14.80.199,103.14.0.0,Hamada,Shimane,JP,34.8281,132.1391,697-8585,Asia/Tokyo
102.168.59.230,102.168.59.230,102.168.0.0,Sousse,Sūsah,TN,35.82539,10.63699,,Africa/Tunis
101.173.104.80,101.173.104.95,101.173.0.0,Churchill,Victoria,AU,-38.30776,146.41367,3842,Australia/Melbourne
109.145.232.248,109.145.232.251,109.145.0.0,Alsager,England,GB,53.09617,-2.30649,ST7,Europe/London
108.87.66.0,108.87.66.255,108.87.0.0,Southaven,Mississippi,US,34.98898,-90.01259,38671,America/Chicago
106.154.63.85,106.154.63.85,106.154.0.0,Yokohama,Kanagawa,JP,35.43333,139.65,220-8588,Asia/Tokyo
101.179.2.192,101.179.2.195,101.179.0.0,Narangba,Queensland,AU,-27.1912,153.0232,4508,Australia/Brisbane
101.128.239.56,101.128.239.59,101.128.0.0,Miyako,Iwate,JP,39.691,141.939,027-0097,Asia/Tokyo
106.217.47.216,106.217.47.255,106.217.0.0,Bengaluru,Karnataka,IN,12.97194,77.59369,560002,Asia/Kolkata
102.106.214.128,102.106.214.255,102.106.0.0,As Sanad,Gafsa,TN,34.4628,9.26404,,Africa/Tunis
101.136.74.98,101.136.74.103,101.136.0.0,Taoyuan City,Taiwan,TW,24.99368,121.29696,,Asia/Taipei
102.170.192.12,102.170.192.12,102.170.0.0,Sfax,Şafāqis,TN,34.74056,10.76028,,Africa/Tunis
104.181.16.52,104.181.16.53,104.181.0.0,North Enid,Oklahoma,US,36.43559,-97.86895,73701,America/Chicago
1.121.142.0,1.121.142.55,1.121.0.0,Adelaide,South Australia,AU,-34.865,138.63705,5086,Australia/Adelaide
102.110.170.156,102.110.170.156,102.110.0.0,Sousse,Sūsah,TN,35.82539,10.63699,,Africa/Tunis
101.182.145.0,101.182.145.191,101.182.0.0,Brisbane,Queensland,AU,-27.4679,153.0281,9019,Australia/Brisbane
104.189.116.93,104.189.117.255,104.189.0.0,McKinney,Texas,US,33.1976,-96.6153,75070,America/Chicago
102.106.115.252,102.106.115.252,102.106.0.0,Sfax,Şafāqis,TN,34.74056,10.76028,,Africa/Tunis
109.118.165.240,109.118.165.243,109.118.0.0,Rome,Lazio,IT,41.89193,12.51133,00118,Europe/Rome
106.68.72.0,106.68.72.255,106.68.0.0,Perth,Western Australia,AU,-32.13531,115.851,6164,Australia/Perth
104.254.103.101,104.254.103.101,104.254.0.0,Fresno,California,US,36.74773,-119.77237,93737,America/Los_Angeles
1.109.93.0,1.109.93.7,1.109.0.0,Seosan,Chungcheongnam-do,KR,36.78167,126.45222,31969,Asia/Seoul
102.170.231.249,102.170.231.249,102.170.0.0,Sousse,Sūsah,TN,35.82539,10.63699,,Africa/Tunis
109.139.13.124,109.139.13.143,109.139.0.0,Brussels,Brussels Capital,BE,50.85045,4.34878,1000,Europe/Brussels
1.47.131.112,1.47.131.127,1.47.0.0,Phon Phisai,Nong Khai,TH,18.02106,103.07664,43120,Asia/Bangkok
106.245.56.0,106.245.56.255,106.245.0.0,Goyang-si,Gyeonggi-do,KR,37.7108,126.7437,10905,Asia/Seoul
102.109.26.206,102.109.26.206,102.109.0.0,Sousse,Sūsah,TN,35.82539,10.63699,,Africa/Tunis
101.176.141.184,101.176.141.191,101.176.0.0,Maitland,New South Wales,AU,-32.73308,151.5574,2320,Australia/Sydney
106.212.189.57,106.212.189.57,106.212.0.0,Delhi,Delhi,IN,28.6063,77.30449,110091,Asia/Kolkata
108.78.185.234,108.78.185.243,108.78.0.0,Florissant,Missouri,US,38.78922,-90.32261,63031,America/Chicago
1.247.85.0,1.247.85.255,1.247.0.0,Cheonan,Chungcheongnam-do,KR,36.8065,127.1522,31126,Asia/Seoul
109.117.54.184,109.117.54.187,109.117.0.0,Padova,Veneto,IT,45.40797,11.88586,35100,Europe/Rome
106.211.163.62,106.211.163.62,106.211.0.0,Bīkaner,Rajasthan,IN,28.01762,73.31495,334001,Asia/Kolkata
108.192.32.0,108.192.33.255,108.192.0.0,West Chicago,Illinois,US,41.88475,-88.20396,60185,America/Chicago
101.51.61.185,101.51.61.185,101.51.0.0,Bang Bon,Bangkok,TH,13.66185,100.39567,10150,Asia/Bangkok
101.61.159.124,101.61.159.127,101.61.0.0,Milan,Lombardy,IT,45.46427,9.18951,20121,Europe/Rome
104.246.48.0,104.246.55.127,104.246.0.0,Bayonne,New Jersey,US,40.66871,-74.11431,07002,America/New_York
102.106.234.105,102.106.234.107,102.106.0.0,Sousse,Sūsah,TN,35.82539,10.63699,,Africa/Tunis
109.112.104.168,109.112.104.231,109.112.0.0,Rome,Lazio,IT,41.89193,12.51133,00118,Europe/Rome
109.10.119.182,109.10.119.227,109.10.0.0,Chambéry,Auvergne-Rhône-Alpes,FR,45.56628,5.92079,73000,Europe/Paris
1.254.147.40,1.254.147.63,1.254.0.0,Seoul,Seoul,KR,37.566,126.9784,03141,Asia/Seoul
1.52.122.16,1.52.122.35,1.52.0.0,Thái Nguyên,Thái Nguyên,VN,21.59422,105.84817,24150,Asia/Bangkok
105.204.221.74,105.204.221.75,105.204.0.0,Al Minyā,Minya,EG,28.09193,30.75813,,Africa/Cairo
104.160.206.184,104.160.206.185,104.160.0.0,Brant,Ontario,CA,43.1334,-80.34967,N3T,America/Toronto
109.140.156.100,109.140.156.103,109.140.0.0,Ans,Wallonia,BE,50.6623,5.52029,4430,Europe/Brussels
1.33.95.128,1.33.95.143,1.33.0.0,Fukushima,Fukushima,JP,37.7602,140.4599,960-8051,Asia/Tokyo
102.107.20.105,102.107.20.105,102.107.0.0,Tunis,Tūnis,TN,36.81897,10.16579,,Africa/Tunis
107.131.144.192,107.131.144.193,107.131.0.0,Seneca,Illinois,US,41.31114,-88.60979,61360,America/Chicago
101.167.5.144,101.167.5.151,101.167.0.0,Conway,Queensland,AU,-20.46219,148.72705,4800,Australia/Brisbane
108.171.66.0,108.171.66.255,108.171.0.0,Roberval,Quebec,CA,48.5168,-72.23244,G8H,America/Toronto
105.72.38.76,105.72.38.82,105.72.0.0,Rabat,Rabat-Salé-Kénitra,MA,34.01325,-6.83255,12152,Africa/Casablanca
104.235.65.173,104.235.65.185,104.235.0.0,Freeport,Illinois,US,42.29669,-89.62123,61032,America/Chicago
108.198.7.203,108.198.7.205,108.198.0.0,Edmond,Oklahoma,US,35.6215,-97.4733,73012,America/Chicago
101.109.77.0,101.109.77.95,101.109.0.0,Udon Thani,Udon Thani,TH,17.41567,102.78589,41000,Asia/Bangkok
103.152.212.40,103.152.212.51,103.152.0.0,Mymensingh,Mymensingh Division,BD,24.75636,90.40646,2210,Asia/Dhaka
105.72.214.130,105.72.214.130,105.72.0.0,Casablanca,Casablanca-Settat,MA,33.58831,-7.61138,29640,Africa/Casablanca
1.100.49.88,1.100.49.95,1.100.0.0,Seoul,Seoul,KR,37.566,126.9784,03141,Asia/Seoul
103.111.228.0,103.111.231.255,103.111.0.0,Brisbane,Queensland,AU,-27.46794,153.02809,4000,Australia/Brisbane
104.179.202.184,104.179.202.185,104.179.0.0,Daytona Beach,Florida,US,29.21081,-81.02283,32115,America/New_York
105.225.160.109,105.225.160.111,105.225.0.0,Pretoria,Gauteng,ZA,-25.74486,28.18783,0083,Africa/Johannesburg
104.158.130.162,104.158.130.162,104.158.0.0,Brampton,Ontario,CA,43.6501,-79.9163,L7G,America/Toronto
101.174.155.6,101.174.155.7,101.174.0.0,Port Augusta,South Australia,AU,-32.49597,137.77281,5700,Australia/Adelaide
102.66.136.40,102.66.136.47,102.66.0.0,Kokstad,KwaZulu-Natal,ZA,-30.55,29.4167,4710,Africa/Johannesburg
108.236.112.0,108.236.112.31,108.236.0.0,Cupertino,California,US,37.323,-122.03218,95014,America/Los_Angeles
107.165.208.0,107.165.212.255,107.165.0.0,San Jose,California,US,37.33939,-121.89496,95103,America/Los_Angeles
101.103.130.216,101.103.130.219,101.103.0.0,Palmerston,Northern Territory,AU,-12.48602,130.9833,0830,Australia/Darwin
107.200.220.0,107.200.223.255,107.200.0.0,Riverside,California,US,33.9208,-117.4589,92503,America/Los_Angeles
105.184.44.184,105.184.44.186,105.184.0.0,Secunda,Mpumalanga,ZA,-26.55,29.16667,2300,Africa/Johannesburg
101.176.130.128,101.176.130.135,101.176.0.0,Whitebridge,New South Wales,AU,-32.97436,151.71614,2290,Australia/Sydney
102.107.110.175,102.107.110.175,102.107.0.0,Sfax,Şafāqis,TN,34.74056,10.76028,,Africa/Tunis
108.176.127.88,108.176.127.91,108.176.0.0,West Seneca,New York,US,42.85006,-78.79975,14220,America/New_York
101.109.128.93,101.109.128.94,101.109.0.0,Bang Lamung,Chon Buri,TH,13.04704,100.92891,20150,Asia/Bangkok
108.161.147.191,108.161.147.191,108.161.0.0,San Diego,California,US,32.71571,-117.16472,92101,America/Los_Angeles
102.169.161.217,102.169.161.217,102.169.0.0,Sfax,Şafāqis,TN,34.74056,10.76028,,Africa/Tunis
108.237.226.136,108.237.226.137,108.237.0.0,Center,Texas,US,31.79545,-94.17909,75935,America/Chicago
106.129.224.221,106.129.224.221,106.129.0.0,Hiroshima,Hiroshima,JP,34.408,132.4455,733-0013,Asia/Tokyo
106.204.106.16,106.204.106.255,106.204.0.0,Bilāspur,Haryana,IN,30.3045,77.30424,141421,Asia/Kolkata
109.149.31.3,109.149.31.3,109.149.0.0,Gobowen,England,GB,52.89615,-3.03686,SY10,Europe/London
102.107.118.212,102.107.118.212,102.107.0.0,Tunis,Tūnis,TN,36.81897,10.16579,,Africa/Tunis
106.154.103.69,106.154.103.69,106.154.0.0,Kōfu,Yamanashi,JP,35.6528,138.6294,400-0811,Asia/Tokyo
107.130.128.8,107.130.128.31,107.130.0.0,Ardmore,Oklahoma,US,34.1566,-97.1792,73401,America/Chicago
103.11.16.0,103.11.19.255,103.11.0.0,Guangzhou,Guangdong,CN,23.11667,113.25,,Asia/Shanghai
102.67.69.0,102.67.69.255,102.67.0.0,Benoni,Gauteng,ZA,-26.18848,28.32078,1501,Africa/Johannesburg
102.173.183.98,102.173.183.99,102.173.0.0,Sousse,Sūsah,TN,35.82539,10.63699,,Africa/Tunis
106.66.121.66,106.66.121.67,106.66.0.0,Delhi,Delhi,IN,28.65195,77.23149,110001,Asia/Kolkata
108.53.101.0,108.53.101.255,108.53.0.0,Fort Lee,New Jersey,US,40.85093,-73.97014,07024,America/New_York
1.228.189.200,1.228.189.203,1.228.0.0,Seoul,Seoul,KR,37.566,126.9784,03141,Asia/Seoul
109.145.220.0,109.145.220.19,109.145.0.0,Southend-on-Sea,England,GB,51.5378,0.7143,SS99,Europe/London
107.165.233.0,107.165.233.255,107.165.0.0,New York City,New York,US,40.71427,-74.00597,10004,America/New_York
1.10.234.46,1.10.234.47,1.10.0.0,Thap Sakae,Prachuap Khiri Khan,TH,11.49964,99.6217,77130,Asia/Bangkok
109.114.42.48,109.114.42.54,109.114.0.0,Bari,Apulia,IT,41.12066,16.86982,70100,Europe/Rome
102.109.224.53,102.109.224.53,102.109.0.0,Tunis,Tūnis,TN,36.81897,10.16579,,Africa/Tunis
109.148.252.150,109.148.252.151,109.148.0.0,London,England,GB,51.4973,-0.1553,SW1X,Europe/London
104.94.18.137,104.94.18.143,104.94.0.0,Delhi,Delhi,IN,28.65195,77.23149,110001,Asia/Kolkata
1.20.24.216,1.20.24.223,1.20.0.0,Thung Song,Nakhon Si Thammarat,TH,8.16453,99.68039,80110,Asia/Bangkok
1.200.132.200,1.200.132.207,1.200.0.0,Kaohsiung,Takao,TW,22.61626,120.31333,,Asia/Taipei
105.188.36.128,105.188.37.167,105.188.0.0,Casablanca,Casablanca-Settat,MA,33.58831,-7.61138,29640,Africa/Casablanca
104.160.197.228,104.160.197.231,104.160.0.0,Owen Sound,Ontario,CA,44.56717,-80.94349,N4K,America/Toronto
1.220.227.128,1.220.227.255,1.220.0.0,Cheongju-si,North Chungcheong,KR,36.6189,127.5132,28764,Asia/Seoul
101.128.227.228,101.128.227.231,101.128.0.0,Fukushima,Fukushima,JP,37.75,140.46667,960-8031,Asia/Tokyo
1.123.26.42,1.123.26.119,1.123.0.0,Brisbane,Queensland,AU,-27.6155,153.00879,4110,Australia/Brisbane
1.1.20.13,1.1.63.255,1.1.0.0,Shenzhen,Guangdong,CN,22.54554,114.0683,,Asia/Shanghai
1.145.248.186,1.145.248.187,1.145.0.0,Gold Coast,Queensland,AU,-27.9565,153.4007,4215,Australia/Brisbane
1.146.16.184,1.146.16.185,1.146.0.0,Melbourne,Victoria,AU,-37.814,144.96332,3000,Australia/Melbourne
106.133.59.0,106.133.59.255,106.133.0.0,Osaka,Ōsaka,JP,34.69374,135.50218,543-0062,Asia/Tokyo
107.133.208.32,107.133.208.32,107.133.0.0,Paris,Kentucky,US,38.2098,-84.25299,40361,America/New_York
101.137.68.238,101.137.68.243,101.137.0.0,Taipei,Taiwan,TW,25.04776,121.53185,,Asia/Taipei
107.241.79.224,107.241.79.231,107.241.0.0,Seattle,Washington,US,47.60621,-122.33207,98101,America/Los_Angeles
101.35.95.248,101.35.96.15,101.35.0.0,Shenzhen,Guangdong,CN,22.54554,114.0683,,Asia/Shanghai
103.176.246.0,103.176.246.1,103.176.0.0,Karachi,Sindh,PK,24.8608,67.0104,74000,Asia/Karachi
1.120.215.20,1.120.215.23,1.120.0.0,Launceston,Tasmania,AU,-41.43876,147.13467,7250,Australia/Hobart
109.146.175.42,109.146.175.43,109.146.0.0,Berkhamsted,England,GB,51.7604,-0.56528,HP4,Europe/London
103.147.134.1,103.147.134.1,103.147.0.0,Suwari Timur,East Java,ID,-5.81545,112.59835,,Asia/Jakarta
104.54.49.105,104.54.49.107,104.54.0.0,Liberal,Kansas,US,37.04308,-100.921,67901,America/Chicago
103.155.162.62,103.155.162.63,103.155.0.0,Vinh,Nghệ An,VN,18.67337,105.69232,43199,Asia/Bangkok
1.230.6.110,1.230.6.111,1.230.0.0,Seoul,Seoul,KR,37.566,126.9784,03141,Asia/Seoul
104.8.108.126,104.8.108.129,104.8.0.0,Pampa,Texas,US,35.53616,-100.95987,79065,America/Chicago
1.53.115.164,1.53.115.164,1.53.0.0,Phú Vang,Thừa Thiên-Huế,VN,16.43911,107.71438,49950,Asia/Bangkok
102.170.96.27,102.170.96.27,102.170.0.0,Sfax,Şafāqis,TN,34.74056,10.76028,,Africa/Tunis
108.178.174.248,108.178.174.251,108.178.0.0,Los Angeles,California,US,34.1121,-118.2594,90039,America/Los_Angeles
106.208.15.128,106.208.15.136,106.208.0.0,Hindupur,Andhra Pradesh,IN,13.82807,77.49143,515202,Asia/Kolkata
106.181.196.157,106.181.196.175,106.181.0.0,Yokohama,Kanagawa,JP,35.5466,139.6446,223-0051,Asia/Tokyo
109.146.236.136,109.146.236.139,109.146.0.0,Marshfield,Wales,GB,51.53389,-3.07306,CF3,Europe/London
104.160.158.24,104.160.158.25,104.160.0.0,Euless,Texas,US,32.83707,-97.08195,76040,America/Chicago
106.66.123.45,106.66.123.45,106.66.0.0,Chennai,Tamil Nadu,IN,13.08784,80.27847,600001,Asia/Kolkata
103.106.119.140,103.106.119.142,103.106.0.0,Rājshāhi,Rajshahi Division,BD,24.374,88.60114,6100,Asia/Dhaka
109.113.214.24,109.113.214.31,109.113.0.0,Cagliari,Sardinia,IT,39.2383,9.1235,09134,Europe/Rome
106.216.98.16,106.216.98.31,106.216.0.0,Surat,Gujarat,IN,21.19594,72.83023,395005,Asia/Kolkata
104.235.68.10,104.235.68.11,104.235.0.0,Chillicothe,Illinois,US,40.92226,-89.4862,61523,America/Chicago
108.208.201.0,108.208.201.255,108.208.0.0,Santa Ana,California,US,33.7489,-117.9072,92703,America/Los_Angeles
102.171.17.96,102.171.17.99,102.171.0.0,Sousse,Sūsah,TN,35.82539,10.63699,,Africa/Tunis
102.156.255.184,102.156.255.255,102.156.0.0,Sousse,Sūsah,TN,35.82539,10.63699,,Africa/Tunis
1.228.65.177,1.228.65.177,1.228.0.0,Cheonan,Chungcheongnam-do,KR,36.8065,127.1522,31126,Asia/Seoul
108.233.219.168,108.233.219.171,108.233.0.0,Peoria,Illinois,US,40.7111,-89.6324,61604,America/Chicago
103.117.16.0,103.117.19.255,103.117.0.0,Beijing,Beijing,CN,39.9075,116.39723,,Asia/Shanghai
101.166.24.200,101.166.24.207,101.166.0.0,Silverwater,New South Wales,AU,-33.066,151.43135,2265,Australia/Sydney
108.86.121.163,108.86.121.171,108.86.0.0,Chesterfield,Missouri,US,38.66311,-90.57707,63006,America/Chicago
102.168.105.215,102.168.105.216,102.168.0.0,Sfax,Şafāqis,TN,34.74056,10.76028,,Africa/Tunis
108.166.154.56,108.166.154.127,108.166.0.0,Ottawa,Illinois,US,41.34559,-88.84258,61350,America/Chicago
1.43.149.200,1.43.149.255,1.43.0.0,Sydney,New South Wales,AU,-33.871,151.1198,2132,Australia/Sydney
106.171.21.208,106.171.21.211,106.171.0.0,Ueda,Nagano,JP,36.4189,138.2158,386-0042,Asia/Tokyo
105.165.169.128,105.165.172.127,105.165.0.0,Nairobi,Nairobi Area,KE,-1.28333,36.81667,,Africa/Nairobi
108.174.101.0,108.174.101.255,108.174.0.0,Chattanooga,Tennessee,US,35.045,-85.2965,37403,America/New_York
109.117.78.181,109.117.78.181,109.117.0.0,Messina,Sicily,IT,38.19394,15.55256,98100,Europe/Rome
105.72.47.49,105.72.47.49,105.72.0.0,Sale,Rabat-Salé-Kénitra,MA,34.0531,-6.79846,11022,Africa/Casablanca
101.185.208.226,101.185.208.226,101.185.0.0,Mandurah,Western Australia,AU,-32.4847,115.77075,6180,Australia/Perth
103.156.184.159,103.156.184.168,103.156.0.0,Hong Kong,Central and Western,HK,22.27832,114.17469,,Asia/Hong_Kong
109.117.108.58,109.117.108.64,109.117.0.0,Bari,Apulia,IT,41.12066,16.86982,70100,Europe/Rome
106.208.239.54,106.208.239.54,106.208.0.0,Jharsuguda,Odisha,IN,21.85531,84.00698,768201,Asia/Kolkata
109.148.95.2,109.148.95.63,109.148.0.0,Banbury,England,GB,52.0632,-1.34222,OX16,Europe/London
101.179.37.244,101.179.37.247,101.179.0.0,Gold Coast,Queensland,AU,-28.00029,153.43088,4217,Australia/Brisbane
101.184.14.62,101.184.14.63,101.184.0.0,Brisbane,Queensland,AU,-27.46794,153.02809,4000,Australia/Brisbane
101.173.46.128,101.173.46.143,101.173.0.0,Renmark West,South Australia,AU,-34.16531,140.7097,5341,Australia/Adelaide
105.153.36.128,105.153.36.255,105.153.0.0,Casablanca,Casablanca-Settat,MA,33.58831,-7.61138,29640,Africa/Casablanca
103.169.186.54,103.169.186.83,103.169.0.0,Jakarta,Jakarta,ID,-6.21462,106.84513,,Asia/Jakarta
101.189.144.0,101.189.144.7,101.189.0.0,Gold Coast,Queensland,AU,-27.91396,153.26628,4210,Australia/Brisbane
102.110.191.190,102.110.191.190,102.110.0.0,Sousse,Sūsah,TN,35.82539,10.63699,,Africa/Tunis
102.110.213.106,102.110.213.107,102.110.0.0,Gabès,Qābis,TN,33.88146,10.0982,,Africa/Tunis
106.69.100.32,106.69.100.39,106.69.0.0,Newcastle,New South Wales,AU,-32.8808,151.6922,2307,Australia/Sydney
1.10.213.120,1.10.213.123,1.10.0.0,Ban Khai,Rayong,TH,12.8125,101.3083,21180,Asia/Bangkok
101.176.7.184,101.176.7.255,101.176.0.0,Melbourne,Victoria,AU,-37.9531,145.0149,3191,Australia/Melbourne
1.109.26.48,1.109.26.55,1.109.0.0,Gunsan,Jeollabuk-do,KR,35.97861,126.71139,54022,Asia/Seoul
107.19.10.46,107.19.10.46,107.19.0.0,Pompano Beach,Florida,US,26.3168,-80.2753,33076,America/New_York
